[{"STATE_ID":"05200_R062004","PROP_LOC":"25 WASHINGTON AVE Scarborough Maine","Grantee":"25 WASH LLC","Co.Grantee":"","Mailing":"PO BOX 547","City":"SCARBOROUGH","State":"ME","Zip":4070,"lon":-70.3593,"lat":43.5729},{"STATE_ID":"05200_R062005","PROP_LOC":"74 MANSON LIBBY RD Scarborough Maine","Grantee":"FIELDING PROPERTIES LLC","Co.Grantee":"","Mailing":"420 US ROUTE 1","City":"SCARBOROUGH","State":"ME","Zip":4074,"lon":-70.3606,"lat":43.5732},{"STATE_ID":"05200_R062005A","PROP_LOC":"26 WASHINGTON AVE Scarborough Maine","Grantee":"ROLLING FRITO-LAY SALES LP","Co.Grantee":"","Mailing":"C/O GEORGE MCELROY & ASSOCIATES INC","City":"DALLAS","State":"TX","Zip":75202,"lon":-70.3595,"lat":43.5719},{"STATE_ID":"05200_R062006","PROP_LOC":"100 MANSON LIBBY RD Scarborough Maine","Grantee":"DELAWARE, REBECCA & ROGER","Co.Grantee":"","Mailing":"100 MANSON LIBBY RD","City":"SCARBOROUGH","State":"ME","Zip":4074,"lon":-70.3617,"lat":43.5718},{"STATE_ID":"05200_R062006A","PROP_LOC":"24 WASHINGTON AVE Scarborough Maine","Grantee":"TWENTY FOUR WASHINGTON ASSOC LLC","Co.Grantee":"","Mailing":"PO BOX 4531","City":"PORTLAND","State":"ME","Zip":4112,"lon":-70.3581,"lat":43.5719},{"STATE_ID":"05200_R062007","PROP_LOC":"75 MANSON LIBBY RD Scarborough Maine","Grantee":"REC PROPERTIES LLC","Co.Grantee":"","Mailing":"75 MANSON LIBBY RD","City":"SCARBOROUGH","State":"ME","Zip":4074,"lon":-70.3614,"lat":43.5734},{"STATE_ID":"05200_R062007A","PROP_LOC":"23 WASHINGTON AVE Scarborough Maine","Grantee":"ANM ENTERPRISES LLC","Co.Grantee":"","Mailing":"23 WASHINGTON AVE","City":"SCARBOROUGH","State":"ME","Zip":4074,"lon":-70.3579,"lat":43.5731},{"STATE_ID":"05200_R062009","PROP_LOC":"20 WASHINGTON AVE Scarborough Maine","Grantee":"SCARBOROUGH, TOWN OF","Co.Grantee":"","Mailing":"P O BOX 360","City":"SCARBOROUGH","State":"ME","Zip":4070,"lon":-70.3551,"lat":43.5727},{"STATE_ID":"05200_R062012","PROP_LOC":"21 WASHINGTON AVE Scarborough Maine","Grantee":"YELLOW DOG PROPERTIES LLC","Co.Grantee":"","Mailing":"21 WASHINGTON AVE","City":"SCARBOROUGH","State":"ME","Zip":4074,"lon":-70.3568,"lat":43.573},{"STATE_ID":"05200_R063008","PROP_LOC":"441 US ROUTE 1 Scarborough Maine","Grantee":"STATE OF MAINE","Co.Grantee":"","Mailing":"UNASSIGNED","City":"SCARBOROUGH","State":"ME","Zip":4074,"lon":-70.352,"lat":43.5871},{"STATE_ID":"05200_R064005","PROP_LOC":"92 PINE POINT RD Scarborough Maine","Grantee":"STATE OF MAINE","Co.Grantee":"","Mailing":"92 PINE POINT RD","City":"SCARBOROUGH","State":"ME","Zip":4074,"lon":-70.3745,"lat":43.5658},{"STATE_ID":"05200_R067001","PROP_LOC":"74 OLD BLUE POINT RD Scarborough Maine","Grantee":"BURNHAM, H PAGE & PATRICIA","Co.Grantee":"","Mailing":"P O BOX 6816","City":"SCARBOROUGH","State":"ME","Zip":4070,"lon":-70.3906,"lat":43.5638},{"STATE_ID":"05200_R067003","PROP_LOC":"127 OLD BLUE POINT RD Scarborough Maine","Grantee":"LEASURE, JOSEPH H","Co.Grantee":"","Mailing":"127 OLD BLUE POINT RD","City":"SCARBOROUGH","State":"ME","Zip":4074,"lon":-70.3715,"lat":43.5558},{"STATE_ID":"05200_R067004","PROP_LOC":"123 OLD BLUE POINT RD Scarborough Maine","Grantee":"QUIRK, JEFFREY M","Co.Grantee":"","Mailing":"123 OLD BLUE POINT RD","City":"SCARBOROUGH","State":"ME","Zip":4074,"lon":-70.373,"lat":43.5553},{"STATE_ID":"05200_R067005","PROP_LOC":"121 OLD BLUE POINT RD Scarborough Maine","Grantee":"POLYS, ROBERT T","Co.Grantee":"","Mailing":"121 OLD BLUE POINT RD","City":"SCARBOROUGH","State":"ME","Zip":4074,"lon":-70.3736,"lat":43.5551},{"STATE_ID":"05200_R067007","PROP_LOC":"8 MAYFLOWER DR Scarborough Maine","Grantee":"LYNCH, HEATHER L CARLSON","Co.Grantee":"LYNCH, MICHAEL F","Mailing":"8 MAYFLOWER DR","City":"SCARBOROUGH","State":"ME","Zip":4074,"lon":-70.3724,"lat":43.5531},{"STATE_ID":"05200_R067007A","PROP_LOC":"10 MAYFLOWER DR Scarborough Maine","Grantee":"SHAFFER, LAWRENCE","Co.Grantee":"SHAFFER, CHRISTINE","Mailing":"10 MAYFLOWER DR","City":"SCARBOROUGH","State":"ME","Zip":4074,"lon":-70.3725,"lat":43.5525},{"STATE_ID":"05200_R067007B","PROP_LOC":"9 MAYFLOWER DR Scarborough Maine","Grantee":"FROST, DANIEL S","Co.Grantee":"FROST, SARAHBELLE M","Mailing":"9 MAYFLOWER DR","City":"SCARBOROUGH","State":"ME","Zip":4074,"lon":-70.3735,"lat":43.5512},{"STATE_ID":"05200_R067008","PROP_LOC":"111 OLD BLUE POINT RD Scarborough Maine","Grantee":"HETHERINGTON, JILL D","Co.Grantee":"","Mailing":"P O BOX 1684","City":"SCARBOROUGH","State":"ME","Zip":4070,"lon":-70.3759,"lat":43.5548},{"STATE_ID":"05200_R067009","PROP_LOC":"99 OLD BLUE POINT RD Scarborough Maine","Grantee":"BURNHAM FAMILY WILDFILE FOUNDATION","Co.Grantee":"","Mailing":"P O BOX 6816","City":"SCARBOROUGH","State":"ME","Zip":4070,"lon":-70.3783,"lat":43.5539},{"STATE_ID":"05200_R067009A","PROP_LOC":"103 OLD BLUE POINT RD Scarborough Maine","Grantee":"BURNHAM, MICHAEL P","Co.Grantee":"","Mailing":"PO BOX 2282","City":"SCARBOROUGH","State":"ME","Zip":4070,"lon":-70.3773,"lat":43.5543},{"STATE_ID":"05200_R067010","PROP_LOC":"00 MILLIKEN MILLS RD Scarborough Maine","Grantee":"BURNHAM, H PAGE & PATRICIA","Co.Grantee":"","Mailing":"P O BOX 6816","City":"SCARBOROUGH","State":"ME","Zip":4070,"lon":-70.3813,"lat":43.5523},{"STATE_ID":"05200_R067010A","PROP_LOC":"4 MILLIKEN MILLS RD Scarborough Maine","Grantee":"BURNHAM, MICHAEL P","Co.Grantee":"","Mailing":"P O BOX 2282","City":"SCARBOROUGH","State":"ME","Zip":4070,"lon":-70.3771,"lat":43.5533},{"STATE_ID":"05200_R067018","PROP_LOC":"3 MILLIKEN MILLS RD Scarborough Maine","Grantee":"BURNHAM FAMILY WILDLIFE FOUNDATION","Co.Grantee":"","Mailing":"P O BOX 6816","City":"SCARBOROUGH","State":"ME","Zip":4070,"lon":-70.3793,"lat":43.5546},{"STATE_ID":"05200_R067019","PROP_LOC":"75 OLD BLUE POINT RD Scarborough Maine","Grantee":"SCARBOROUGH, TOWN OF","Co.Grantee":"","Mailing":"OLD BLUE POINT RD","City":"SCARBOROUGH","State":"ME","Zip":0,"lon":-70.3835,"lat":43.5543},{"STATE_ID":"05200_R067020","PROP_LOC":"2 LIBERTY BELL LN Scarborough Maine","Grantee":"SOBIECH, JOHN T","Co.Grantee":"SOBIECH, NANCY E","Mailing":"2 LIBERTY BELL LN","City":"SCARBOROUGH","State":"ME","Zip":4074,"lon":-70.3718,"lat":43.5555},{"STATE_ID":"05200_R067021","PROP_LOC":"4 LIBERTY BELL LN Scarborough Maine","Grantee":"CARRIER, MARK E & ROBYN L","Co.Grantee":"","Mailing":"4 LIBERTY BELL LN","City":"SCARBOROUGH","State":"ME","Zip":4074,"lon":-70.3716,"lat":43.5552},{"STATE_ID":"05200_R067022","PROP_LOC":"6 LIBERTY BELL LN Scarborough Maine","Grantee":"PARISEAU, RICHARD A","Co.Grantee":"PARISEAU, PATRICIA A","Mailing":"6 LIBERTY BELL LN","City":"SCARBOROUGH","State":"ME","Zip":4074,"lon":-70.3715,"lat":43.5548},{"STATE_ID":"05200_R067023","PROP_LOC":"8 LIBERTY BELL LN Scarborough Maine","Grantee":"QUINN, MATTHEW & CYNTHIA","Co.Grantee":"","Mailing":"8 LIBERTY BELL LN","City":"SCARBOROUGH","State":"ME","Zip":4074,"lon":-70.3716,"lat":43.5544},{"STATE_ID":"05200_R067024","PROP_LOC":"10 LIBERTY BELL LN Scarborough Maine","Grantee":"HINTON, JEAN M","Co.Grantee":"","Mailing":"10 LIBERTY BELL LN","City":"SCARBOROUGH","State":"ME","Zip":4074,"lon":-70.3717,"lat":43.554},{"STATE_ID":"05200_R067025","PROP_LOC":"1 LIBERTY BELL LN Scarborough Maine","Grantee":"TOWNSEND, ALLAN K","Co.Grantee":"TOWNSEND, LYNN M LIZOTTE","Mailing":"1 LIBERTY BELL LN","City":"SCARBOROUGH","State":"ME","Zip":4074,"lon":-70.3726,"lat":43.5556},{"STATE_ID":"05200_R067026","PROP_LOC":"3 LIBERTY BELL LN Scarborough Maine","Grantee":"DOLAN, REBECCA K SEELEY","Co.Grantee":"DOLAN, SEAN J","Mailing":"3 LIBERTY BELL LN","City":"SCARBOROUGH","State":"ME","Zip":4074,"lon":-70.3724,"lat":43.5552},{"STATE_ID":"05200_R067027","PROP_LOC":"5 LIBERTY BELL LN Scarborough Maine","Grantee":"MAXELL, JEREMY BRUCE","Co.Grantee":"MAXELL, JULIE MARIE","Mailing":"5 LIBERTY BELL LN","City":"SCARBOROUGH","State":"ME","Zip":4074,"lon":-70.3724,"lat":43.5549},{"STATE_ID":"05200_R067028","PROP_LOC":"9 LIBERTY BELL LN Scarborough Maine","Grantee":"COMYNS, NANTZ J","Co.Grantee":"","Mailing":"9 LIBERTY BELL LN","City":"SCARBOROUGH","State":"ME","Zip":4074,"lon":-70.3724,"lat":43.5545},{"STATE_ID":"05200_R067029","PROP_LOC":"12 LIBERTY BELL LN Scarborough Maine","Grantee":"GRANNELL, NATHAN & BRITTANY","Co.Grantee":"WHITTY, KAREN & JEFFREY","Mailing":"12 LIBERTY BELL LN","City":"SCARBOROUGH","State":"ME","Zip":4074,"lon":-70.3728,"lat":43.5536},{"STATE_ID":"05200_R067030","PROP_LOC":"11 LIBERTY BELL LN Scarborough Maine","Grantee":"WALLACE, JASON W","Co.Grantee":"WALLACE, LIBBY","Mailing":"11 LIBERTY BELL LN","City":"SCARBOROUGH","State":"ME","Zip":4074,"lon":-70.3732,"lat":43.5542},{"STATE_ID":"05200_R067031","PROP_LOC":"2 MAYFLOWER DR Scarborough Maine","Grantee":"HASSLER, THOMAS W JR","Co.Grantee":"HASSLER, CLAIRE PATTEE","Mailing":"2 MAYFLOWER DR","City":"SCARBOROUGH","State":"ME","Zip":4074,"lon":-70.3742,"lat":43.555},{"STATE_ID":"05200_R067032","PROP_LOC":"1 MAYFLOWER DR Scarborough Maine","Grantee":"QUINLAN, ADAM","Co.Grantee":"QUINLAN, DANIELLE","Mailing":"1 MAYFLOWER DR","City":"SCARBOROUGH","State":"ME","Zip":4074,"lon":-70.3751,"lat":43.5544},{"STATE_ID":"05200_R067033","PROP_LOC":"3 MAYFLOWER DR Scarborough Maine","Grantee":"DOUGLAS, MARK A & LISA M","Co.Grantee":"","Mailing":"3 MAYFLOWER DR","City":"SCARBOROUGH","State":"ME","Zip":4074,"lon":-70.3744,"lat":43.5541},{"STATE_ID":"05200_R067034","PROP_LOC":"5 MAYFLOWER DR Scarborough Maine","Grantee":"JEWELL, WILLIAM C","Co.Grantee":"JEWELL, CELIA","Mailing":"5 MAYFLOWER DR","City":"SCARBOROUGH","State":"ME","Zip":4074,"lon":-70.3738,"lat":43.5536},{"STATE_ID":"05200_R068001","PROP_LOC":"100 OLD BLUE POINT RD Scarborough Maine","Grantee":"BURNHAM, H PAGE & PATRICIA G","Co.Grantee":"BURNHAM FAMILY WILDLIFE FOUNDATION","Mailing":"PO BOX 6816","City":"SCARBOROUGH","State":"ME","Zip":4070,"lon":-70.3766,"lat":43.5557},{"STATE_ID":"05200_R068002","PROP_LOC":"138 OLD BLUE POINT RD Scarborough Maine","Grantee":"SCARBOROUGH, TOWN OF","Co.Grantee":"","Mailing":"UNASSIGNED","City":"SCARBOROUGH","State":"ME","Zip":4074,"lon":-70.3717,"lat":43.5579},{"STATE_ID":"05200_R068003","PROP_LOC":"140 OLD BLUE POINT RD Scarborough Maine","Grantee":"BRENNAN, JAMIE A","Co.Grantee":"","Mailing":"140 OLD BLUE POINT RD","City":"SCARBOROUGH","State":"ME","Zip":4074,"lon":-70.3698,"lat":43.557},{"STATE_ID":"05200_R068004","PROP_LOC":"142 OLD BLUE POINT RD Scarborough Maine","Grantee":"BERGERON, DAVID B","Co.Grantee":"","Mailing":"19 BARLEY LN","City":"SCARBOROUGH","State":"ME","Zip":4074,"lon":-70.3691,"lat":43.5571},{"STATE_ID":"05200_R068004A","PROP_LOC":"OLD BLUE POINT RD Scarborough Maine","Grantee":"TYSON, JOHN M","Co.Grantee":"","Mailing":"PO BOX 6472","City":"SCARBOROUGH","State":"ME","Zip":4070,"lon":-70.3814,"lat":43.5576},{"STATE_ID":"05200_R068005","PROP_LOC":"144 OLD BLUE POINT RD Scarborough Maine","Grantee":"KENNEY, PATRICK J","Co.Grantee":"KENNEY, PAMELA J","Mailing":"144 OLD BLUE POINT RD","City":"SCARBOROUGH","State":"ME","Zip":4074,"lon":-70.3701,"lat":43.5581},{"STATE_ID":"05200_R068006","PROP_LOC":"154 OLD BLUE POINT RD Scarborough Maine","Grantee":"BAYLEY, STANLEY R","Co.Grantee":"BAYLEY, APRIL G","Mailing":"154 OLD BLUE POINT RD ","City":"SCARBOROUGH","State":"ME","Zip":4074,"lon":-70.368,"lat":43.5576},{"STATE_ID":"05200_R068006B","PROP_LOC":"165 PINE POINT RD Scarborough Maine","Grantee":"BAYLEY, STANLEY R","Co.Grantee":"BAYLEY, NANCY W","Mailing":"26 EAGLES NEST DR","City":"SCARBOROUGH","State":"ME","Zip":4074,"lon":-70.367,"lat":43.5578},{"STATE_ID":"05200_R068006C","PROP_LOC":"161 PINE POINT RD Scarborough Maine","Grantee":"BAYLEY, STANLEY R","Co.Grantee":"BAYLEY, NANCY W","Mailing":"26 EAGLES DR","City":"SCARBOROUGH","State":"ME","Zip":4074,"lon":-70.3676,"lat":43.558},{"STATE_ID":"05200_R068006D","PROP_LOC":"159 PINE POINT RD Scarborough Maine","Grantee":"DO, TUYET A","Co.Grantee":"","Mailing":"159 PINE POINT RD","City":"SCARBOROUGH","State":"ME","Zip":4074,"lon":-70.3678,"lat":43.5583},{"STATE_ID":"05200_R068006E","PROP_LOC":"157 PINE POINT RD Scarborough Maine","Grantee":"STONE, ALLAN","Co.Grantee":"","Mailing":"157 PINE POINT RD","City":"SCARBOROUGH","State":"ME","Zip":4074,"lon":-70.3681,"lat":43.5584},{"STATE_ID":"05200_R068007","PROP_LOC":"149 PINE POINT RD Scarborough Maine","Grantee":"TILL, CHRISTOPHER","Co.Grantee":"CONLAN, JOHANNA","Mailing":"149 PINE POINT RD","City":"SCARBOROUGH","State":"ME","Zip":4074,"lon":-70.3684,"lat":43.5589},{"STATE_ID":"05200_R068009","PROP_LOC":"145 PINE POINT RD Scarborough Maine","Grantee":"LANDRY, RICHARD","Co.Grantee":"","Mailing":"145 PINE POINT RD","City":"SCARBOROUGH","State":"ME","Zip":4074,"lon":-70.3692,"lat":43.5595},{"STATE_ID":"05200_R068011","PROP_LOC":"NA Scarborough Maine","Grantee":"STATE OF MAINE","Co.Grantee":"EASTERN TRAIL PARKING","Mailing":"UNASSIGNED","City":"SCARBOROUGH","State":"ME","Zip":4074,"lon":-70.3345,"lat":43.5902},{"STATE_ID":"05200_R068012","PROP_LOC":"PINE POINT RD Scarborough Maine","Grantee":"STATE OF MAINE","Co.Grantee":"","Mailing":"8 FEDERAL ST","City":"AUGUSTA","State":"ME","Zip":4330,"lon":-70.3649,"lat":43.5565},{"STATE_ID":"05200_R068013","PROP_LOC":"PINE POINT RD Scarborough Maine","Grantee":"BURLESON, LISA S","Co.Grantee":"BURLESON, CHRISTOPHER D","Mailing":"1043 SAWYER RD","City":"CAPE ELIZABETH","State":"ME","Zip":4107,"lon":-70.3649,"lat":43.5565},{"STATE_ID":"05200_R068015","PROP_LOC":"PINE POINT RD Scarborough Maine","Grantee":"STATE OF MAINE","Co.Grantee":"","Mailing":"PINE POINT RD","City":"SCARBOROUGH","State":"ME","Zip":4074,"lon":-70.3649,"lat":43.5565},{"STATE_ID":"05200_R068015","PROP_LOC":"PINE POINT RD Scarborough Maine","Grantee":"STATE OF MAINE","Co.Grantee":"","Mailing":"PINE POINT RD","City":"SCARBOROUGH","State":"ME","Zip":4074,"lon":-70.3649,"lat":43.5565},{"STATE_ID":"05200_R068015","PROP_LOC":"PINE POINT RD Scarborough Maine","Grantee":"STATE OF MAINE","Co.Grantee":"","Mailing":"PINE POINT RD","City":"SCARBOROUGH","State":"ME","Zip":4074,"lon":-70.3649,"lat":43.5565},{"STATE_ID":"05200_R068015","PROP_LOC":"PINE POINT RD Scarborough Maine","Grantee":"STATE OF MAINE","Co.Grantee":"","Mailing":"PINE POINT RD","City":"SCARBOROUGH","State":"ME","Zip":4074,"lon":-70.3649,"lat":43.5565},{"STATE_ID":"05200_R068015","PROP_LOC":"PINE POINT RD Scarborough Maine","Grantee":"STATE OF MAINE","Co.Grantee":"","Mailing":"PINE POINT RD","City":"SCARBOROUGH","State":"ME","Zip":4074,"lon":-70.3649,"lat":43.5565},{"STATE_ID":"05200_R068015","PROP_LOC":"PINE POINT RD Scarborough Maine","Grantee":"STATE OF MAINE","Co.Grantee":"","Mailing":"PINE POINT RD","City":"SCARBOROUGH","State":"ME","Zip":4074,"lon":-70.3649,"lat":43.5565},{"STATE_ID":"05200_R068016","PROP_LOC":"89 PINE POINT RD Scarborough Maine","Grantee":"SCARBOROUGH, TOWN OF","Co.Grantee":"","Mailing":"PO BOX 360","City":"SCARBOROUGH","State":"ME","Zip":4070,"lon":-70.3723,"lat":43.5632},{"STATE_ID":"05200_R068017","PROP_LOC":"31 BURNHAM WOODS CIR Scarborough Maine","Grantee":"MURPHY, PATRICK M","Co.Grantee":"HASKELL, KATHIE L","Mailing":"31 BURNHAM WOODS CIR","City":"SCARBOROUGH","State":"ME","Zip":4074,"lon":-70.3742,"lat":43.5557},{"STATE_ID":"05200_R068018","PROP_LOC":"29 BURNHAM WOODS CIR Scarborough Maine","Grantee":"WALLACE, BRIAN W","Co.Grantee":"WALLACE, JOANNA K","Mailing":"29 BURNHAM WOODS CIR","City":"SCARBOROUGH","State":"ME","Zip":4074,"lon":-70.3744,"lat":43.5559},{"STATE_ID":"05200_R068019","PROP_LOC":"27 BURNHAM WOODS CIR Scarborough Maine","Grantee":"YORK, GLEN D & STEPHANIE R","Co.Grantee":"","Mailing":"27 BURNHAM WOODS CIR","City":"SCARBOROUGH","State":"ME","Zip":4074,"lon":-70.3746,"lat":43.5562},{"STATE_ID":"05200_R068020","PROP_LOC":"25 BURNHAM WOODS CIR Scarborough Maine","Grantee":"MORSE, MATTHEW J","Co.Grantee":"MORSE, KAREN S","Mailing":"25 BURNHAM WOODS CIR","City":"SCARBOROUGH","State":"ME","Zip":4074,"lon":-70.375,"lat":43.5565},{"STATE_ID":"05200_R068021","PROP_LOC":"23 BURNHAM WOODS CIR Scarborough Maine","Grantee":"BURNHAM, KENNETH P","Co.Grantee":"BURNHAM, JESSICA V","Mailing":"PO BOX 34","City":"SCARBOROUGH","State":"ME","Zip":4070,"lon":-70.3746,"lat":43.5569},{"STATE_ID":"05200_R068022","PROP_LOC":"21 BURNHAM WOODS CIR Scarborough Maine","Grantee":"JOHNSON, JODI-ANN","Co.Grantee":"","Mailing":"21 BURNHAM WOODS CIR","City":"SCARBOROUGH","State":"ME","Zip":4074,"lon":-70.3743,"lat":43.5571},{"STATE_ID":"05200_R068023","PROP_LOC":"19 BURNHAM WOODS CIR Scarborough Maine","Grantee":"PHILBRICK, DEBORAH P","Co.Grantee":"","Mailing":"19 BURNHAM WOODS CIR","City":"SCARBOROUGH","State":"ME","Zip":4074,"lon":-70.374,"lat":43.5573},{"STATE_ID":"05200_R068024","PROP_LOC":"17 BURNHAM WOODS CIR Scarborough Maine","Grantee":"HAZELWOOD, JENNIFER A","Co.Grantee":"HAZELWOOD, BRIAN C","Mailing":"17 BURNHAM WOODS CIR","City":"SCARBOROUGH","State":"ME","Zip":4074,"lon":-70.3737,"lat":43.5575},{"STATE_ID":"05200_R068025","PROP_LOC":"15 BURNHAM WOODS CIR Scarborough Maine","Grantee":"CLEAVES, DAVID B LIVING TRUST","Co.Grantee":"CLEAVES, DONNA D LIVING TRUST","Mailing":"15 BURNHAM WOODS CIR","City":"SCARBOROUGH","State":"ME","Zip":4074,"lon":-70.3735,"lat":43.5578},{"STATE_ID":"05200_R068026","PROP_LOC":"13 BURNHAM WOODS CIR Scarborough Maine","Grantee":"CALLAHAN, ROBERT C","Co.Grantee":"CALLAHAN, CARRIE-ANN U","Mailing":"13 BURNHAM WOODS CIR","City":"SCARBOROUGH","State":"ME","Zip":4074,"lon":-70.373,"lat":43.5579},{"STATE_ID":"05200_R068027","PROP_LOC":"11 BURNHAM WOODS CIR Scarborough Maine","Grantee":"GALLOWAY, DOUGLAS SCOTT","Co.Grantee":"ORDWAY, ABIGAIL M","Mailing":"11 BURNHAM WOODS CIR","City":"SCARBOROUGH","State":"ME","Zip":4074,"lon":-70.3726,"lat":43.5577},{"STATE_ID":"05200_R068028","PROP_LOC":"9 BURNHAM WOODS CIR Scarborough Maine","Grantee":"LEBAUER, ANDREW","Co.Grantee":"","Mailing":"9 BURNHAM WOODS CIR","City":"SCARBOROUGH","State":"ME","Zip":4074,"lon":-70.3723,"lat":43.5575},{"STATE_ID":"05200_R068029","PROP_LOC":"7 BURNHAM WOODS CIR Scarborough Maine","Grantee":"PETERSEN, DONALD B","Co.Grantee":"PETERSEN, NIKKI","Mailing":"7 BURNHAM WOODS CIR","City":"SCARBOROUGH","State":"ME","Zip":4074,"lon":-70.3723,"lat":43.5571},{"STATE_ID":"05200_R068030","PROP_LOC":"5 BURNHAM WOODS CIR Scarborough Maine","Grantee":"MAYO, MICHAEL E & LINDA L","Co.Grantee":"","Mailing":"5 BURNHAM WOODS CIR","City":"SCARBOROUGH","State":"ME","Zip":4074,"lon":-70.3723,"lat":43.5568},{"STATE_ID":"05200_R068031","PROP_LOC":"3 BURNHAM WOODS CIR Scarborough Maine","Grantee":"GRIFFIN, MARIA R","Co.Grantee":"","Mailing":"3 BURNHAM WOODS CIR","City":"SCARBOROUGH","State":"ME","Zip":4074,"lon":-70.3722,"lat":43.5565},{"STATE_ID":"05200_R068032","PROP_LOC":"1 BURNHAM WOODS CIR Scarborough Maine","Grantee":"TOURANGEAU, NORMA JEAN","Co.Grantee":"","Mailing":"1 BURNHAM WOODS CIR","City":"SCARBOROUGH","State":"ME","Zip":4074,"lon":-70.3721,"lat":43.5563},{"STATE_ID":"05200_R068033","PROP_LOC":"30 BURNHAM WOODS CIR Scarborough Maine","Grantee":"MALIA, STEPHEN P","Co.Grantee":"MALIA, DEBORAH J","Mailing":"30 BURNHAM WOODS CIR","City":"SCARBOROUGH","State":"ME","Zip":4074,"lon":-70.3735,"lat":43.5559},{"STATE_ID":"05200_R068034","PROP_LOC":"28 BURNHAM WOODS CIR Scarborough Maine","Grantee":"AGUIRRE, JOSE G","Co.Grantee":"","Mailing":"28 BURNHAM WOODS CIR","City":"SCARBOROUGH","State":"ME","Zip":4074,"lon":-70.3736,"lat":43.5561},{"STATE_ID":"05200_R068035","PROP_LOC":"26 BURNHAM WOODS CIR Scarborough Maine","Grantee":"HEROUX, MARI-LYN A","Co.Grantee":"MORSE, ELLA J HEIRS OF","Mailing":"26 BURNHAM WOODS CIR","City":"SCARBOROUGH","State":"ME","Zip":4074,"lon":-70.3738,"lat":43.5564},{"STATE_ID":"05200_R068036","PROP_LOC":"22 BURNHAM WOODS CIR Scarborough Maine","Grantee":"HOLSTON, JAMES R","Co.Grantee":"HOLSTON, NANCY M","Mailing":"PO BOX 330","City":"ORANGE","State":"MA","Zip":1364,"lon":-70.3738,"lat":43.5568},{"STATE_ID":"05200_R068037","PROP_LOC":"18 BURNHAM WOODS CIR Scarborough Maine","Grantee":"HICKS, GARY I","Co.Grantee":"HICKS, MARY ELLEN","Mailing":"18 BURNHAM WOODS CIR","City":"SCARBOROUGH","State":"ME","Zip":4074,"lon":-70.3735,"lat":43.557},{"STATE_ID":"05200_R068038","PROP_LOC":"10 BURNHAM WOODS CIR Scarborough Maine","Grantee":"FOSLER, LISA S & KEITH G","Co.Grantee":"","Mailing":"10 BURNHAM WOODS CIR","City":"SCARBOROUGH","State":"ME","Zip":4074,"lon":-70.3731,"lat":43.5572},{"STATE_ID":"05200_R068039","PROP_LOC":"6 BURNHAM WOODS CIR Scarborough Maine","Grantee":"DIAZ, LEETA M","Co.Grantee":"DIAZ, MARK A","Mailing":"6 BURNHAM WOODS CIR","City":"SCARBOROUGH","State":"ME","Zip":4074,"lon":-70.373,"lat":43.5568},{"STATE_ID":"05200_R068040","PROP_LOC":"4 BURNHAM WOODS CIR Scarborough Maine","Grantee":"WERNER, AARON J","Co.Grantee":"WERNER, KATHRYN M","Mailing":"4 BURNHAM WOODS CIR","City":"SCARBOROUGH","State":"ME","Zip":4074,"lon":-70.3729,"lat":43.5564},{"STATE_ID":"05200_R068041","PROP_LOC":"2 BURNHAM WOODS CIR Scarborough Maine","Grantee":"BARKER, MICHAEL J","Co.Grantee":"BARKER, JUDITH A","Mailing":"2 BURNHAM WOODS CIR","City":"SCARBOROUGH","State":"ME","Zip":4074,"lon":-70.3728,"lat":43.5561},{"STATE_ID":"05200_R0681001","PROP_LOC":"7 IRIS DR Scarborough Maine","Grantee":"LAVIGNE, DANIEL W","Co.Grantee":"LAVIGNE, MICHELLE H","Mailing":"7 IRIS DR","City":"SCARBOROUGH","State":"ME","Zip":4074,"lon":-70.3694,"lat":43.5589},{"STATE_ID":"05200_R0681002","PROP_LOC":"5 IRIS DR Scarborough Maine","Grantee":"ABRAHAMS, RICHARD W","Co.Grantee":"ABRAHAMS, LESLIE R","Mailing":"44 GOODRICH RD","City":"GLASTONBURY","State":"CT","Zip":6033,"lon":-70.3691,"lat":43.5586},{"STATE_ID":"05200_R0681003","PROP_LOC":"3 IRIS DR Scarborough Maine","Grantee":"MCCLURE, RYAN P","Co.Grantee":"OLSEN, HILLARIE M","Mailing":"3 IRIS DR","City":"SCARBOROUGH","State":"ME","Zip":4074,"lon":-70.3689,"lat":43.5585},{"STATE_ID":"05200_R0681004","PROP_LOC":"1 IRIS DR Scarborough Maine","Grantee":"COHEN, LINDA A","Co.Grantee":"","Mailing":"1 IRIS DR","City":"SCARBOROUGH","State":"ME","Zip":4074,"lon":-70.3685,"lat":43.5582},{"STATE_ID":"05200_R0681005","PROP_LOC":"2 IRIS DR Scarborough Maine","Grantee":"MACKECHNIE, KERIN A","Co.Grantee":"","Mailing":"2 IRIS DR","City":"SCARBOROUGH","State":"ME","Zip":4074,"lon":-70.3689,"lat":43.5577},{"STATE_ID":"05200_R0681006","PROP_LOC":"4 IRIS DR Scarborough Maine","Grantee":"HUNT, ANGELA P","Co.Grantee":"HUNT, DAVID W","Mailing":"4 IRIS DR","City":"SCARBOROUGH","State":"ME","Zip":4074,"lon":-70.3694,"lat":43.558},{"STATE_ID":"05200_R0681007","PROP_LOC":"6 IRIS DR Scarborough Maine","Grantee":"FRANCIS, RICHARD H","Co.Grantee":"FRANCIS, HEATHER F","Mailing":"6 IRIS DR","City":"SCARBOROUGH","State":"ME","Zip":4074,"lon":-70.3696,"lat":43.5583},{"STATE_ID":"05200_R0681008","PROP_LOC":"8 IRIS DR Scarborough Maine","Grantee":"CLOUKEY, BONNIE A","Co.Grantee":"","Mailing":"8 IRIS DR","City":"SCARBOROUGH","State":"ME","Zip":4074,"lon":-70.3699,"lat":43.5585},{"STATE_ID":"05200_R0681009","PROP_LOC":"10 IRIS DR Scarborough Maine","Grantee":"RABY, LOUISA M","Co.Grantee":"RABY, JOHN H","Mailing":"10 IRIS DR","City":"SCARBOROUGH","State":"ME","Zip":4074,"lon":-70.3703,"lat":43.5588},{"STATE_ID":"05200_R0681010","PROP_LOC":"12 IRIS DR Scarborough Maine","Grantee":"LAMBERT, TIMOTHY S","Co.Grantee":"LAMBERT, AMY","Mailing":"12 IRIS DR","City":"SCARBOROUGH","State":"ME","Zip":4074,"lon":-70.3706,"lat":43.5591},{"STATE_ID":"05200_R0681011","PROP_LOC":"14 IRIS DR Scarborough Maine","Grantee":"BURGER, ROBERT M & LINDA R","Co.Grantee":"","Mailing":"14 IRIS DR","City":"SCARBOROUGH","State":"ME","Zip":4074,"lon":-70.3708,"lat":43.5592},{"STATE_ID":"05200_R0681012","PROP_LOC":"11 IRIS DR Scarborough Maine","Grantee":"EHNSTROM, NILS T","Co.Grantee":"EHNSTROM, BETSY K","Mailing":"11 IRIS DR","City":"SCARBOROUGH","State":"ME","Zip":4074,"lon":-70.3702,"lat":43.5594},{"STATE_ID":"05200_R0681013","PROP_LOC":"3 PRIMROSE LN Scarborough Maine","Grantee":"UNASSIGNED","Co.Grantee":"","Mailing":"UNASSIGNED","City":"","State":"","lon":-70.37,"lat":43.5596},{"STATE_ID":"05200_R0681014","PROP_LOC":"1 PRIMROSE LN Scarborough Maine","Grantee":"JACQUES, ROBERT M","Co.Grantee":"JACQUES, KATHERINE M","Mailing":"1 PRIMROSE LN","City":"SCARBOROUGH","State":"ME","Zip":4074,"lon":-70.3697,"lat":43.5597},{"STATE_ID":"05200_R0681015","PROP_LOC":"15 IRIS DR Scarborough Maine","Grantee":"FORTUNATO, ANDREW M","Co.Grantee":"FORTUNATO, PATRICIA A","Mailing":"15 IRIS DR","City":"SCARBOROUGH","State":"ME","Zip":4074,"lon":-70.3703,"lat":43.56},{"STATE_ID":"05200_R0681016","PROP_LOC":"16 IRIS DR Scarborough Maine","Grantee":"FRANKLIN, ALAN G","Co.Grantee":"FRANKLIN, BRENDA L","Mailing":"16 IRIS DR","City":"SCARBOROUGH","State":"ME","Zip":4074,"lon":-70.3712,"lat":43.5597},{"STATE_ID":"05200_R069001","PROP_LOC":"140 PINE POINT RD Scarborough Maine","Grantee":"SNOW, ROXANNE","Co.Grantee":"","Mailing":"140 PINE POINT RD","City":"SCARBOROUGH","State":"ME","Zip":4074,"lon":-70.3695,"lat":43.5603},{"STATE_ID":"05200_R069002","PROP_LOC":"PINE POINT RD Scarborough Maine","Grantee":"STATE OF MAINE","Co.Grantee":"","Mailing":"660 PINE POINT RD","City":"SCARBOROUGH","State":"ME","Zip":4074,"lon":-70.3649,"lat":43.5565},{"STATE_ID":"05200_R069002","PROP_LOC":"PINE POINT RD Scarborough Maine","Grantee":"STATE OF MAINE","Co.Grantee":"","Mailing":"660 PINE POINT RD","City":"SCARBOROUGH","State":"ME","Zip":4074,"lon":-70.3649,"lat":43.5565},{"STATE_ID":"05200_R069002","PROP_LOC":"PINE POINT RD Scarborough Maine","Grantee":"STATE OF MAINE","Co.Grantee":"","Mailing":"660 PINE POINT RD","City":"SCARBOROUGH","State":"ME","Zip":4074,"lon":-70.3649,"lat":43.5565},{"STATE_ID":"05200_R069004","PROP_LOC":"146 PINE POINT RD Scarborough Maine","Grantee":"SNOW, JOSEPH W","Co.Grantee":"","Mailing":"5 NAGOG LANE","City":"WESTFORD","State":"MA","Zip":1886,"lon":-70.3686,"lat":43.5597},{"STATE_ID":"05200_R069005","PROP_LOC":"152 PINE POINT RD Scarborough Maine","Grantee":"WILSON, MARK S JR","Co.Grantee":"WILSON, BRENNA E","Mailing":"152 PINE POINT RD","City":"SCARBOROUGH","State":"ME","Zip":4074,"lon":-70.3679,"lat":43.5591},{"STATE_ID":"05200_R069007","PROP_LOC":"156 PINE POINT RD Scarborough Maine","Grantee":"ESPOSITO, CELESTE","Co.Grantee":"","Mailing":"156 PINE POINT RD","City":"SCARBOROUGH","State":"ME","Zip":4074,"lon":-70.3675,"lat":43.5588},{"STATE_ID":"05200_R070001","PROP_LOC":"PINE POINT RD Scarborough Maine","Grantee":"STATE OF MAINE","Co.Grantee":"","Mailing":"UNASSIGNED","City":"SCARBOROUGH","State":"ME","Zip":4074,"lon":-70.3649,"lat":43.5565},{"STATE_ID":"05200_R072005","PROP_LOC":"81 MARSH LOT S OF RR Scarborough Maine","Grantee":"STATE OF MAINE","Co.Grantee":"","Mailing":"MARSH LOT S OF RR","City":"SCARBOROUGH","State":"ME","Zip":4074,"lon":-70.3345,"lat":43.5902},{"STATE_ID":"05200_R073017","PROP_LOC":"NA Scarborough Maine","Grantee":"STATE OF MAINE","Co.Grantee":"","Mailing":"UNASSIGNED","City":"SCARBOROUGH","State":"ME","Zip":4074,"lon":-70.3345,"lat":43.5902},{"STATE_ID":"05200_R085002","PROP_LOC":"28 SEAVEY LANDING RD Scarborough Maine","Grantee":"GAGNON, HELEN","Co.Grantee":"CANGE, STEPHANIE","Mailing":"28 SEAVEY LANDING RD","City":"SCARBOROUGH","State":"ME","Zip":4074,"lon":-70.3546,"lat":43.5533},{"STATE_ID":"05200_R085003","PROP_LOC":"36 SEAVEY LANDING RD Scarborough Maine","Grantee":"HESSLEIN, GREGG A","Co.Grantee":"HESSLEIN, JODIE L","Mailing":"36 SEAVEY LANDING RD","City":"SCARBOROUGH","State":"ME","Zip":4074,"lon":-70.3515,"lat":43.5552},{"STATE_ID":"05200_R085004","PROP_LOC":"38 SEAVEY LANDING RD Scarborough Maine","Grantee":"TRUMPLER, ROBERT","Co.Grantee":"PAGE, KIMBERLY","Mailing":"38 SEAVEY LANDING RD ","City":"SCARBOROUGH","State":"ME","Zip":4074,"lon":-70.3514,"lat":43.5554},{"STATE_ID":"05200_R085005","PROP_LOC":"40 SEAVEY LANDING RD Scarborough Maine","Grantee":"CAMPBELL, MICHAEL V","Co.Grantee":"CAMPBELL, BONNIE J","Mailing":"40 SEAVEY LANDING RD","City":"SCARBOROUGH","State":"ME","Zip":4074,"lon":-70.3512,"lat":43.5557},{"STATE_ID":"05200_R085006","PROP_LOC":"44 SEAVEY LANDING RD Scarborough Maine","Grantee":"TURNER, BRUCE C & BARBARA F","Co.Grantee":"","Mailing":"44 SEAVEY LANDING RD","City":"SCARBOROUGH","State":"ME","Zip":4074,"lon":-70.3508,"lat":43.556},{"STATE_ID":"05200_R085007","PROP_LOC":"46 SEAVEY LANDING RD Scarborough Maine","Grantee":"LOMAC, JOHN M JR & SCHMIDT, JILL M","Co.Grantee":"JML & JMS FAMILY TRUST","Mailing":"832 WEST MONTECITO WAY","City":"SAN DIEGO","State":"CA","Zip":92103,"lon":-70.3502,"lat":43.5563},{"STATE_ID":"05200_R085008","PROP_LOC":"48 SEAVEY LANDING RD Scarborough Maine","Grantee":"KEITH, THIRZA E","Co.Grantee":"SOLAK, NORMAN G","Mailing":"48 SEAVEY LANDING RD","City":"SCARBOROUGH","State":"ME","Zip":4074,"lon":-70.3529,"lat":43.554},{"STATE_ID":"05200_R085009","PROP_LOC":"50 SEAVEY LANDING RD Scarborough Maine","Grantee":"BERGERON, JOHN R","Co.Grantee":"","Mailing":"PO BOX 760","City":"OLD ORCHARD BEACH","State":"ME","Zip":4064,"lon":-70.3498,"lat":43.5563},{"STATE_ID":"05200_R085010","PROP_LOC":"52 SEAVEY LANDING RD Scarborough Maine","Grantee":"STAMELL, JONATHAN D","Co.Grantee":"","Mailing":"475 W 22ND ST #3","City":"NEW YORK","State":"NY","Zip":10011,"lon":-70.3526,"lat":43.5543},{"STATE_ID":"05200_R085011","PROP_LOC":"54 SEAVEY LANDING RD Scarborough Maine","Grantee":"RINALDI, JENNIFER","Co.Grantee":"RINALDI, ANTHONY JR","Mailing":"164 KINGSLAND RD","City":"BOONTON","State":"NJ","Zip":7005,"lon":-70.3492,"lat":43.5564},{"STATE_ID":"05200_R085012","PROP_LOC":"58 SEAVEY LANDING RD Scarborough Maine","Grantee":"SCARBOROUGH, TOWN OF","Co.Grantee":"","Mailing":"P O BOX 360","City":"SCARBOROUGH","State":"ME","Zip":4070,"lon":-70.3486,"lat":43.5564},{"STATE_ID":"05200_R085014","PROP_LOC":"16 SEAVEY LANDING RD Scarborough Maine","Grantee":"MOSKEVICH, PAUL D","Co.Grantee":"MOSKEVICH, ELLEN L","Mailing":"16 SEAVEY LANDING RD","City":"SCARBOROUGH","State":"ME","Zip":4074,"lon":-70.3542,"lat":43.5537},{"STATE_ID":"05200_R085015","PROP_LOC":"18 SEAVEY LANDING RD Scarborough Maine","Grantee":"SAITO, DIANE M","Co.Grantee":"","Mailing":"18 SEAVEY LANDING RD","City":"SCARBOROUGH","State":"ME","Zip":4074,"lon":-70.3538,"lat":43.5538},{"STATE_ID":"05200_R085016","PROP_LOC":"20 SEAVEY LANDING RD Scarborough Maine","Grantee":"LAWSURE, SARAH J","Co.Grantee":"","Mailing":"20 SEAVEY LANDING RD","City":"SCARBOROUGH","State":"ME","Zip":4074,"lon":-70.3532,"lat":43.5542},{"STATE_ID":"05200_R085017","PROP_LOC":"32 SEAVEY LANDING RD Scarborough Maine","Grantee":"LYRA TRUST","Co.Grantee":"SNOW, SUSAN RUTH TTEE","Mailing":"5607 STONEHENGE DR","City":"RICHARDSON","State":"TX","Zip":75082,"lon":-70.3524,"lat":43.5552},{"STATE_ID":"05200_R086001","PROP_LOC":"58 ROSS RD Scarborough Maine","Grantee":"BAYLEY, FRED W & KATHLEEN M","Co.Grantee":"","Mailing":"27 ROSS RD","City":"SCARBOROUGH","State":"ME","Zip":4074,"lon":-70.3702,"lat":43.5472},{"STATE_ID":"05200_R086001B","PROP_LOC":"25 ROSS RD Scarborough Maine","Grantee":"CHEN, ENCHI","Co.Grantee":"YIN, LINGXIA","Mailing":"6 HILLSIDE AVE","City":"SCARBOROUGH","State":"ME","Zip":4074,"lon":-70.361,"lat":43.5483},{"STATE_ID":"05200_R086004","PROP_LOC":"275 PINE POINT RD Scarborough Maine","Grantee":"BAYLEY, FKT FAMILY LIMITED PARTNERSHIP","Co.Grantee":"","Mailing":"27 ROSS RD","City":"SCARBOROUGH","State":"ME","Zip":4074,"lon":-70.3571,"lat":43.5474},{"STATE_ID":"05200_R086004A","PROP_LOC":"22 ROSS RD Scarborough Maine","Grantee":"BAYLEY, AMANDA L","Co.Grantee":"BAYLEY, ROGER P","Mailing":"22 ROSS RD","City":"SCARBOROUGH","State":"ME","Zip":4074,"lon":-70.3596,"lat":43.548},{"STATE_ID":"05200_R086007","PROP_LOC":"36 ROSS RD Scarborough Maine","Grantee":"BAYLEY, JAMES PAUL","Co.Grantee":"","Mailing":"36 ROSS RD","City":"SCARBOROUGH","State":"ME","Zip":4074,"lon":-70.3651,"lat":43.5448},{"STATE_ID":"05200_R086008A","PROP_LOC":"50 ROSS RD Scarborough Maine","Grantee":"BAYLEY, STEPHEN E & MARY L","Co.Grantee":"","Mailing":"50 ROSS RD","City":"SCARBOROUGH","State":"ME","Zip":4074,"lon":-70.3673,"lat":43.5451},{"STATE_ID":"05200_R086009","PROP_LOC":"52 ROSS RD Scarborough Maine","Grantee":"BAYLEY, THOMAS R","Co.Grantee":"BAYLEY, JAMIE M","Mailing":"52 ROSS RD","City":"SCARBOROUGH","State":"ME","Zip":4074,"lon":-70.3685,"lat":43.5436},{"STATE_ID":"05200_R086010","PROP_LOC":"29 WINDSOR PINES DR Scarborough Maine","Grantee":"WORMWOOD, VANCE & CYNTHIA","Co.Grantee":"","Mailing":"29 WINDSOR PINES DR","City":"SCARBOROUGH","State":"ME","Zip":4074,"lon":-70.369,"lat":43.5528},{"STATE_ID":"05200_R086011","PROP_LOC":"27 WINDSOR PINES DR Scarborough Maine","Grantee":"HATCH, JOAN","Co.Grantee":"HATCH, JAMES S","Mailing":"27 WINDSOR PINES DR","City":"SCARBOROUGH","State":"ME","Zip":4074,"lon":-70.3693,"lat":43.5527},{"STATE_ID":"05200_R086012","PROP_LOC":"25 WINDSOR PINES DR Scarborough Maine","Grantee":"BRONSON, SUSAN K","Co.Grantee":"","Mailing":"25 WINDSOR PINES DR","City":"SCARBOROUGH","State":"ME","Zip":4074,"lon":-70.3697,"lat":43.5526},{"STATE_ID":"05200_R086013","PROP_LOC":"23 WINDSOR PINES DR Scarborough Maine","Grantee":"SHEA, KEVIN R","Co.Grantee":"SHEA, JODI L","Mailing":"23 WINDSOR PINES DR","City":"SCARBOROUGH","State":"ME","Zip":4074,"lon":-70.3702,"lat":43.5525},{"STATE_ID":"05200_R086014","PROP_LOC":"21 WINDSOR PINES DR Scarborough Maine","Grantee":"PRESCOTT, ADAM R","Co.Grantee":"LEVETT, KATHRYN M","Mailing":"21 WINDSOR PINES DR","City":"SCARBOROUGH","State":"ME","Zip":4074,"lon":-70.371,"lat":43.5526},{"STATE_ID":"05200_R086015","PROP_LOC":"19 WINDSOR PINES DR Scarborough Maine","Grantee":"LARKIN, MARK S","Co.Grantee":"LARKIN, MICHELLE A R","Mailing":"19 WINDSOR PINES DR","City":"SCARBOROUGH","State":"ME","Zip":4074,"lon":-70.3714,"lat":43.5532},{"STATE_ID":"05200_R086016","PROP_LOC":"17 WINDSOR PINES DR Scarborough Maine","Grantee":"PERLUT, NOAH G","Co.Grantee":"NEUMANN, STACEY D","Mailing":"17 WINDSOR PINES DR","City":"SCARBOROUGH","State":"ME","Zip":4074,"lon":-70.3712,"lat":43.5537},{"STATE_ID":"05200_R086017","PROP_LOC":"15 WINDSOR PINES DR Scarborough Maine","Grantee":"MADDOCK, STEVEN R","Co.Grantee":"COTE, HOPE A","Mailing":"15 WINDSOR PINES DR","City":"SCARBOROUGH","State":"ME","Zip":4074,"lon":-70.3706,"lat":43.5541},{"STATE_ID":"05200_R086018","PROP_LOC":"14 WINDSOR PINES DR Scarborough Maine","Grantee":"DAVIS, SUSAN H","Co.Grantee":"BRODELL, FAY M","Mailing":"14 WINDSOR PINES DR","City":"SCARBOROUGH","State":"ME","Zip":4074,"lon":-70.3701,"lat":43.5537},{"STATE_ID":"05200_R086019","PROP_LOC":"16 WINDSOR PINES DR Scarborough Maine","Grantee":"MCDONALD, HEIDI","Co.Grantee":"MCDONALD, PETER","Mailing":"16 WINDSOR PINES DR","City":"SCARBOROUGH","State":"ME","Zip":4074,"lon":-70.3705,"lat":43.5535},{"STATE_ID":"05200_R086020","PROP_LOC":"20 WINDSOR PINES DR Scarborough Maine","Grantee":"PECK, JORDAN S","Co.Grantee":"PECK, EMILY A","Mailing":"20 WINDSOR PINES DR","City":"SCARBOROUGH","State":"ME","Zip":4074,"lon":-70.3705,"lat":43.5531},{"STATE_ID":"05200_R086021","PROP_LOC":"24 WINDSOR PINES DR Scarborough Maine","Grantee":"NATHANSON, DAINA J","Co.Grantee":"","Mailing":"24 WINDSOR PINES DR","City":"SCARBOROUGH","State":"ME","Zip":4074,"lon":-70.3701,"lat":43.553},{"STATE_ID":"05200_R086022","PROP_LOC":"26 WINDSOR PINES DR Scarborough Maine","Grantee":"SPOTTISWOODE, TERRY P HEIRS OF","Co.Grantee":"","Mailing":"35 EDES RD","City":"CUMBERLAND","State":"ME","Zip":4021,"lon":-70.3698,"lat":43.5531},{"STATE_ID":"05200_R086023","PROP_LOC":"28 WINDSOR PINES DR Scarborough Maine","Grantee":"BERGSTROM, PAUL S & MARY W","Co.Grantee":"","Mailing":"28 WINDSOR PINES DR","City":"SCARBOROUGH","State":"ME","Zip":4074,"lon":-70.3695,"lat":43.5533},{"STATE_ID":"05200_R087005","PROP_LOC":"10 SNOW CANNING RD Scarborough Maine","Grantee":"J D H S ENTERPRISES","Co.Grantee":"","Mailing":"10 SNOW CANNING RD","City":"SCARBOROUGH","State":"ME","Zip":4074,"lon":-70.3499,"lat":43.5442},{"STATE_ID":"05200_R087005A","PROP_LOC":"0 PINE POINT RD Scarborough Maine","Grantee":"DEPT OF INLAND FISHERIES AND WILDLIFE","Co.Grantee":"","Mailing":"41 STATE HOUSE STATION","City":"AUGUSTA","State":"ME","Zip":4333,"lon":-70.3649,"lat":43.5565},{"STATE_ID":"05200_R087007","PROP_LOC":"20 SNOW CANNING RD Scarborough Maine","Grantee":"J D H S ENTERPRISES","Co.Grantee":"","Mailing":"10 SNOW CANNING RD","City":"SCARBOROUGH","State":"ME","Zip":4074,"lon":-70.3513,"lat":43.5448},{"STATE_ID":"05200_R087013","PROP_LOC":"15 HOLLY ST Scarborough Maine","Grantee":"BURNHAM BUSINESS PARK LLC","Co.Grantee":"","Mailing":"PO BOX 34","City":"SCARBOROUGH","State":"ME","Zip":4070,"lon":-70.3531,"lat":43.5449},{"STATE_ID":"05200_R087013A","PROP_LOC":"24 BICKFORD ST Scarborough Maine","Grantee":"BURNHAM, HAROLD P II","Co.Grantee":"","Mailing":"P O BOX 2087","City":"SCARBOROUGH","State":"ME","Zip":4070,"lon":-70.3549,"lat":43.5448},{"STATE_ID":"05200_R087014","PROP_LOC":"20 SNOW RD Scarborough Maine","Grantee":"NIGMANOV, FARID","Co.Grantee":"NIGMANOVA, NATALIA","Mailing":"20 SNOW RD","City":"SCARBOROUGH","State":"ME","Zip":4074,"lon":-70.3556,"lat":43.5455},{"STATE_ID":"05200_R087014A","PROP_LOC":"22 SNOW RD Scarborough Maine","Grantee":"DUBE, JOSEPH A","Co.Grantee":"","Mailing":"22 SNOW RD","City":"SCARBOROUGH","State":"ME","Zip":4074,"lon":-70.3559,"lat":43.545},{"STATE_ID":"05200_R087015","PROP_LOC":"28 SNOW RD Scarborough Maine","Grantee":"FRANKLIN, GARY & BEVERLY","Co.Grantee":"","Mailing":"28 SNOW RD","City":"SCARBOROUGH","State":"ME","Zip":4074,"lon":-70.3566,"lat":43.5443},{"STATE_ID":"05200_R087016","PROP_LOC":"38 SNOW RD Scarborough Maine","Grantee":"38 SNOW ROAD LLC","Co.Grantee":"","Mailing":"PO BOX 2087","City":"SCARBOROUGH","State":"ME","Zip":4070,"lon":-70.3575,"lat":43.5435},{"STATE_ID":"05200_R087016A","PROP_LOC":"36 SNOW RD Scarborough Maine","Grantee":"HOSSFEILD, MATTHEW","Co.Grantee":"DONAHUE, JACQUELYN R","Mailing":"36 SNOW RD","City":"SCARBOROUGH","State":"ME","Zip":4074,"lon":-70.3572,"lat":43.5438},{"STATE_ID":"05200_R087018","PROP_LOC":"0 ROSS RD Scarborough Maine","Grantee":"FKT BAYLEY FAMILY PARTNERSHIP","Co.Grantee":"","Mailing":"27 ROSS RD","City":"SCARBOROUGH","State":"ME","Zip":4074,"lon":-70.3917,"lat":43.5308},{"STATE_ID":"05200_R087019","PROP_LOC":"39 SNOW RD Scarborough Maine","Grantee":"BAYLEY, GAELAN T","Co.Grantee":"","Mailing":"39 SNOW RD","City":"SCARBOROUGH","State":"ME","Zip":4074,"lon":-70.3584,"lat":43.5432},{"STATE_ID":"05200_R087019","PROP_LOC":"39 SNOW RD Scarborough Maine","Grantee":"BAYLEY, GAELAN T","Co.Grantee":"","Mailing":"39 SNOW RD","City":"SCARBOROUGH","State":"ME","Zip":4074,"lon":-70.3584,"lat":43.5432},{"STATE_ID":"05200_R087019A","PROP_LOC":"42 SNOW RD Scarborough Maine","Grantee":"BAYLEY, THOMAS R","Co.Grantee":"BAYLEY, JAMIE M","Mailing":"52 ROSS RD","City":"SCARBOROUGH","State":"ME","Zip":4074,"lon":-70.3564,"lat":43.5426},{"STATE_ID":"05200_R087019B","PROP_LOC":"41 SNOW RD Scarborough Maine","Grantee":"FKT BAYLEY FAMILY LIMITED PARTNERSHIP","Co.Grantee":"","Mailing":"27 ROSS RD","City":"SCARBOROUGH","State":"ME","Zip":4074,"lon":-70.3599,"lat":43.5431},{"STATE_ID":"05200_R087020","PROP_LOC":"33 SNOW RD Scarborough Maine","Grantee":"BAYLEY, FRED W","Co.Grantee":"BAYLEY, KATHLEEN M","Mailing":"27 ROSS RD","City":"SCARBOROUGH","State":"ME","Zip":4074,"lon":-70.3575,"lat":43.5441},{"STATE_ID":"05200_R087021","PROP_LOC":"27 SNOW RD Scarborough Maine","Grantee":"CUMMINGS, SILAS A","Co.Grantee":"CUMMINGS, DOROTHY F","Mailing":"27 SNOW RD","City":"SCARBOROUGH","State":"ME","Zip":4074,"lon":-70.357,"lat":43.5447},{"STATE_ID":"05200_R087021A","PROP_LOC":"31 SNOW RD Scarborough Maine","Grantee":"COLE, PATRICIA","Co.Grantee":"","Mailing":"31 SNOW RD","City":"SCARBOROUGH","State":"ME","Zip":4074,"lon":-70.3573,"lat":43.5445},{"STATE_ID":"05200_R087022","PROP_LOC":"23 SNOW RD Scarborough Maine","Grantee":"SHOREY, JANET M","Co.Grantee":"","Mailing":"23 SNOW RD","City":"SCARBOROUGH","State":"ME","Zip":4074,"lon":-70.3569,"lat":43.5452},{"STATE_ID":"05200_R087023","PROP_LOC":"21 SNOW RD Scarborough Maine","Grantee":"LIBBY FAMILY REVOCABLE TRUST","Co.Grantee":"","Mailing":"21 SNOW RD","City":"SCARBOROUGH","State":"ME","Zip":4074,"lon":-70.3565,"lat":43.5453},{"STATE_ID":"05200_R087024","PROP_LOC":"17 SNOW RD Scarborough Maine","Grantee":"WOOD, CYNTHIA A","Co.Grantee":"","Mailing":"17 SNOW RD","City":"SCARBOROUGH","State":"ME","Zip":4074,"lon":-70.3561,"lat":43.5457},{"STATE_ID":"05200_R088001","PROP_LOC":"25 SEAVEY LANDING RD Scarborough Maine","Grantee":"MERRILL, ROBERT E","Co.Grantee":"","Mailing":"23 SEAVEY LANDING RD","City":"SCARBOROUGH","State":"ME","Zip":4074,"lon":-70.3503,"lat":43.5548},{"STATE_ID":"05200_R088001A","PROP_LOC":"23 SEAVEY LANDING RD Scarborough Maine","Grantee":"MERRILL, ROBERT","Co.Grantee":"","Mailing":"23 SEAVEY LANDING RD","City":"SCARBOROUGH","State":"ME","Zip":4074,"lon":-70.3526,"lat":43.5533},{"STATE_ID":"05200_R088001B","PROP_LOC":"33 SEAVEY LANDING RD Scarborough Maine","Grantee":"REYNOLDS, TRISTAN S","Co.Grantee":"NEIMANIS, AELITA K","Mailing":"33 SEAVEY LANDING RD","City":"SCARBOROUGH","State":"ME","Zip":4074,"lon":-70.3511,"lat":43.5549},{"STATE_ID":"05200_R088001C","PROP_LOC":"NA Scarborough Maine","Grantee":"GLEASON, THOMAS F","Co.Grantee":"GLEASON, SUZANNE","Mailing":"51 SEAVEY LANDING RD","City":"SCARBOROUGH","State":"ME","Zip":4074,"lon":-70.3345,"lat":43.5902},{"STATE_ID":"05200_R088001D","PROP_LOC":"NA Scarborough Maine","Grantee":"COST MANAGEMENT INC","Co.Grantee":"","Mailing":"1 RUGOSA WAY","City":"CAPE ELIZABETH","State":"ME","Zip":4107,"lon":-70.3345,"lat":43.5902},{"STATE_ID":"05200_R088001E","PROP_LOC":"NA Scarborough Maine","Grantee":"MCGRATH WILLIAM L","Co.Grantee":"","Mailing":"1 RUGOSA WAY","City":"CAPE ELIZABETH","State":"ME","Zip":4107,"lon":-70.3345,"lat":43.5902},{"STATE_ID":"05200_R088001F","PROP_LOC":"NA Scarborough Maine","Grantee":"COST MANAGEMENT INC","Co.Grantee":"","Mailing":"1 RUGOSA WAY","City":"CAPE ELIZABETH","State":"ME","Zip":4107,"lon":-70.3345,"lat":43.5902},{"STATE_ID":"05200_R088002","PROP_LOC":"30 OCEAN VIEW RD Scarborough Maine","Grantee":"LOTHROP, ROBERT","Co.Grantee":"LOTHROP, PATRICIA E","Mailing":"30 OCEAN VIEW RD","City":"SCARBOROUGH","State":"ME","Zip":4074,"lon":-70.351,"lat":43.5516},{"STATE_ID":"05200_R088002A","PROP_LOC":"32 OCEAN VIEW RD Scarborough Maine","Grantee":"VIOLETTE, DENNIS J","Co.Grantee":"","Mailing":"32 OCEAN VIEW RD","City":"SCARBOROUGH","State":"ME","Zip":4074,"lon":-70.3512,"lat":43.5515},{"STATE_ID":"05200_R088002B","PROP_LOC":"28 OCEAN VIEW RD Scarborough Maine","Grantee":"VIOLETTE, GARY S","Co.Grantee":"","Mailing":"28 OCEAN VIEW RD","City":"SCARBOROUGH","State":"ME","Zip":4074,"lon":-70.3518,"lat":43.5518},{"STATE_ID":"05200_R088003","PROP_LOC":"OCEAN VIEW RD Scarborough Maine","Grantee":"LARY, MAHLON L ESTATE OF","Co.Grantee":"","Mailing":"6310 HARTMAN DR","City":"COLORADO SPRINGS","State":"CO","Zip":80923,"lon":-70.3536,"lat":43.5513},{"STATE_ID":"05200_R088005","PROP_LOC":"24 SNOW CANNING RD Scarborough Maine","Grantee":"CUMMINGS, ROBERT A","Co.Grantee":"","Mailing":"24 SNOW CANNING RD","City":"SCARBOROUGH","State":"ME","Zip":4074,"lon":-70.3503,"lat":43.5459},{"STATE_ID":"05200_R088009","PROP_LOC":"PINE POINT RD Scarborough Maine","Grantee":"STATE OF MAINE","Co.Grantee":"","Mailing":"UNASSIGNED","City":"SCARBOROUGH","State":"ME","Zip":4074,"lon":-70.3649,"lat":43.5565},{"STATE_ID":"05200_R088010A","PROP_LOC":"21 SNOW CANNING RD Scarborough Maine","Grantee":"BAYLEYS QUALITY SEAFOODS INC","Co.Grantee":"","Mailing":"C/O STANLEY BAYLEY","City":"SCARBOROUGH","State":"ME","Zip":4074,"lon":-70.3492,"lat":43.5444},{"STATE_ID":"05200_R088011","PROP_LOC":"314 RR TO RIVER CK Scarborough Maine","Grantee":"STATE OF MAINE","Co.Grantee":"","Mailing":"UNASSIGNED","City":"SCARBOROUGH","State":"ME","Zip":4074,"lon":-70.3345,"lat":43.5902},{"STATE_ID":"05200_R088401","PROP_LOC":"1 SNOWBERRY DR Scarborough Maine","Grantee":"SEARS, DEBRA","Co.Grantee":"","Mailing":"1 SNOWBERRY DR","City":"SCARBOROUGH","State":"ME","Zip":4074,"lon":-70.3556,"lat":43.5492},{"STATE_ID":"05200_R088402","PROP_LOC":"3 SNOWBERRY DR Scarborough Maine","Grantee":"FEARON, TYSON R","Co.Grantee":"FEARON, BRITTANY","Mailing":"3 SNOWBERRY DR","City":"SCARBOROUGH","State":"ME","Zip":4074,"lon":-70.3551,"lat":43.5493},{"STATE_ID":"05200_R088403","PROP_LOC":"5 SNOWBERRY DR Scarborough Maine","Grantee":"KEMPER, ROBERTA","Co.Grantee":"","Mailing":"5 SNOWBERRY DR","City":"SCARBOROUGH","State":"ME","Zip":4074,"lon":-70.3546,"lat":43.5494},{"STATE_ID":"05200_R088404","PROP_LOC":"7 SNOWBERRY DR Scarborough Maine","Grantee":"NEUMANN, LOUIS","Co.Grantee":"","Mailing":"PO BOX 6784","City":"SCARBOROUGH","State":"ME","Zip":4070,"lon":-70.3542,"lat":43.5495},{"STATE_ID":"05200_R088405","PROP_LOC":"9 SNOWBERRY DR Scarborough Maine","Grantee":"SHINNERS, JENNIFER NICOLE","Co.Grantee":"SHINNERS, MARK JOSEPH","Mailing":"9 SNOWBERRY DR","City":"SCARBOROUGH","State":"ME","Zip":4074,"lon":-70.3537,"lat":43.5495},{"STATE_ID":"05200_R088406","PROP_LOC":"11 SNOWBERRY DR Scarborough Maine","Grantee":"GORDON, BRIAN W & DONNA M","Co.Grantee":"","Mailing":"11 SNOWBERRY DR","City":"SCARBOROUGH","State":"ME","Zip":4074,"lon":-70.3533,"lat":43.5497},{"STATE_ID":"05200_R088407","PROP_LOC":"15 SNOWBERRY DR Scarborough Maine","Grantee":"BLANCHETTE, KALEN M","Co.Grantee":"BLANCHETTE, CHAD A","Mailing":"15 SNOWBERRY DR","City":"SCARBOROUGH","State":"ME","Zip":4074,"lon":-70.3529,"lat":43.5498},{"STATE_ID":"05200_R088408","PROP_LOC":"17 SNOWBERRY DR Scarborough Maine","Grantee":"SAWYER, SARAH J","Co.Grantee":"SAWYER, MATTHEW P","Mailing":"17 SNOWBERRY DR","City":"SCARBOROUGH","State":"ME","Zip":4074,"lon":-70.3525,"lat":43.5499},{"STATE_ID":"05200_R088409","PROP_LOC":"19 SNOWBERRY DR Scarborough Maine","Grantee":"SACCO, STEVEN","Co.Grantee":"DANA SACCO, GAIL","Mailing":"19 SNOWBERRY DR","City":"SCARBOROUGH","State":"ME","Zip":4074,"lon":-70.3521,"lat":43.5499},{"STATE_ID":"05200_R088410","PROP_LOC":"21 SNOWBERRY DR Scarborough Maine","Grantee":"GOODE, TRACY D","Co.Grantee":"","Mailing":"21 SNOWBERRY DR","City":"SCARBOROUGH","State":"ME","Zip":4074,"lon":-70.3517,"lat":43.55},{"STATE_ID":"05200_R088411","PROP_LOC":"23 SNOWBERRY DR Scarborough Maine","Grantee":"GILES, MARGARET A TRUST","Co.Grantee":"GILES, MARGARET A TRUSTEE","Mailing":"23 SNOWBERRY DR","City":"SCARBOROUGH","State":"ME","Zip":4074,"lon":-70.3512,"lat":43.5501},{"STATE_ID":"05200_R088412","PROP_LOC":"25 SNOWBERRY DR Scarborough Maine","Grantee":"ST CYR, RAYMOND A JR","Co.Grantee":"SPARDA, STEPHANIE V","Mailing":"25 SNOWBERRY DR","City":"SCARBOROUGH","State":"ME","Zip":4074,"lon":-70.3508,"lat":43.5503},{"STATE_ID":"05200_R088413","PROP_LOC":"24 SNOWBERRY DR Scarborough Maine","Grantee":"GREENBERG, MARC A","Co.Grantee":"GREENBERG, LEIGH L H","Mailing":"24 SNOWBERRY DR","City":"SCARBOROUGH","State":"ME","Zip":4074,"lon":-70.3508,"lat":43.5509},{"STATE_ID":"05200_R088414","PROP_LOC":"22 SNOWBERRY DR Scarborough Maine","Grantee":"COPELAND, BRIAN J","Co.Grantee":"COPELAND, WENDY J","Mailing":"22 SNOWBERRY DR","City":"SCARBOROUGH","State":"ME","Zip":4074,"lon":-70.3517,"lat":43.5509},{"STATE_ID":"05200_R088415","PROP_LOC":"20 SNOWBERRY DR Scarborough Maine","Grantee":"RODRIGUE, JOHN K","Co.Grantee":"RODRIGUE, BARBARA J","Mailing":"20 SNOWBERRY DR","City":"SCARBOROUGH","State":"ME","Zip":4074,"lon":-70.3522,"lat":43.5506},{"STATE_ID":"05200_R088416","PROP_LOC":"18 SNOWBERRY DR Scarborough Maine","Grantee":"SHEEHAN, MICHAEL L","Co.Grantee":"SHEEHAN, KATHRYN O","Mailing":"18 SNOWBERRY DR","City":"SCARBOROUGH","State":"ME","Zip":4074,"lon":-70.3525,"lat":43.5504},{"STATE_ID":"05200_R088417","PROP_LOC":"16 SNOWBERRY DR Scarborough Maine","Grantee":"FRAZIER, JOHN P","Co.Grantee":"FRAZIER, MELANIE J","Mailing":"16 SNOWBERRY DR","City":"SCARBOROUGH","State":"ME","Zip":4074,"lon":-70.3529,"lat":43.5503},{"STATE_ID":"05200_R088418","PROP_LOC":"14 SNOWBERRY DR Scarborough Maine","Grantee":"FRANKLIN, KIRK A","Co.Grantee":"FRANKLIN, STACY A","Mailing":"14 SNOWBERRY DR","City":"SCARBOROUGH","State":"ME","Zip":4074,"lon":-70.3533,"lat":43.5502},{"STATE_ID":"05200_R088419","PROP_LOC":"12 SNOWBERRY DR Scarborough Maine","Grantee":"FELLOWS, CORY R","Co.Grantee":"FELLOWS, KATHERYN E","Mailing":"12 SNOWBERRY DR","City":"SCARBOROUGH","State":"ME","Zip":4074,"lon":-70.3536,"lat":43.5502},{"STATE_ID":"05200_R088420","PROP_LOC":"10 SNOWBERRY DR Scarborough Maine","Grantee":"HOLTON, MAURICE A TRST","Co.Grantee":"HOLTON, MARIE T TRST","Mailing":"10 SNOWBERRY DR","City":"SCARBOROUGH","State":"ME","Zip":4074,"lon":-70.3541,"lat":43.5501},{"STATE_ID":"05200_R088421","PROP_LOC":"8 SNOWBERRY DR Scarborough Maine","Grantee":"LARSEN, ERIC C","Co.Grantee":"LARSEN, LESLIE K","Mailing":"8 SNOWBERRY DR","City":"SCARBOROUGH","State":"ME","Zip":4074,"lon":-70.3545,"lat":43.55},{"STATE_ID":"05200_R088422","PROP_LOC":"6 SNOWBERRY DR Scarborough Maine","Grantee":"MCMAHON, TRACY E","Co.Grantee":"","Mailing":"6 SNOWBERRY DR","City":"SCARBOROUGH","State":"ME","Zip":4074,"lon":-70.355,"lat":43.5502},{"STATE_ID":"05200_R088423","PROP_LOC":"4 SNOWBERRY DR Scarborough Maine","Grantee":"WYLIE, VALERIE MARIE","Co.Grantee":"","Mailing":"4 SNOWBERRY DR","City":"SCARBOROUGH","State":"ME","Zip":4074,"lon":-70.3553,"lat":43.55},{"STATE_ID":"05200_R088424","PROP_LOC":"2 SNOWBERRY DR Scarborough Maine","Grantee":"MILLER, LAURA S","Co.Grantee":"MILLER, CONOR C","Mailing":"2 SNOWBERRY DR","City":"SCARBOROUGH","State":"ME","Zip":4074,"lon":-70.3559,"lat":43.5498},{"STATE_ID":"05200_R088425","PROP_LOC":"254 PINE POINT RD Scarborough Maine","Grantee":"AUDET, MICHAEL J","Co.Grantee":"AUDET, FRANCES E","Mailing":"254 PINE POINT RD","City":"SCARBOROUGH","State":"ME","Zip":4074,"lon":-70.3557,"lat":43.5504},{"STATE_ID":"05200_U010001","PROP_LOC":"1 HIGH POINT RD Scarborough Maine","Grantee":"ARMSTRONG, ELIZABETH N","Co.Grantee":"","Mailing":"1 HIGH POINT RD","City":"SCARBOROUGH","State":"ME","Zip":4074,"lon":-70.341,"lat":43.5649},{"STATE_ID":"05200_U010003","PROP_LOC":"27 HIGH POINT RD Scarborough Maine","Grantee":"HUGHES, RUTH C","Co.Grantee":"","Mailing":"27 HIGH POINT RD","City":"SCARBOROUGH","State":"ME","Zip":4074,"lon":-70.342,"lat":43.565},{"STATE_ID":"05200_U010004","PROP_LOC":"25 HIGH POINT RD Scarborough Maine","Grantee":"OSTRANDER, KAREN E","Co.Grantee":"","Mailing":"25 HIGH POINT RD","City":"SCARBOROUGH","State":"ME","Zip":4074,"lon":-70.343,"lat":43.5643},{"STATE_ID":"05200_U010005","PROP_LOC":"23 HIGH POINT RD Scarborough Maine","Grantee":"MCEACHARN, MARY F","Co.Grantee":"MCEACHARN, JOSEPH R","Mailing":"23 HIGH POINT RD","City":"SCARBOROUGH","State":"ME","Zip":4074,"lon":-70.3426,"lat":43.5642},{"STATE_ID":"05200_U010006","PROP_LOC":"21 HIGH POINT RD Scarborough Maine","Grantee":"SHOLL, BENJAMIN","Co.Grantee":"SHOLL, KIMBERLY","Mailing":"21 HIGH POINT RD","City":"SCARBOROUGH","State":"ME","Zip":4074,"lon":-70.3418,"lat":43.5644},{"STATE_ID":"05200_U010007","PROP_LOC":"19 HIGH POINT RD Scarborough Maine","Grantee":"BARRETT, DAN P & BETSY B","Co.Grantee":"","Mailing":"19 HIGH POINT RD","City":"SCARBOROUGH","State":"ME","Zip":4074,"lon":-70.3409,"lat":43.5644},{"STATE_ID":"05200_U010022","PROP_LOC":"20 HIGH POINT RD Scarborough Maine","Grantee":"DOUGHTY, MARK R","Co.Grantee":"DOUGHTY, DORIS M","Mailing":"20 HIGH POINT RD","City":"SCARBOROUGH","State":"ME","Zip":4074,"lon":-70.3405,"lat":43.564},{"STATE_ID":"05200_U010023","PROP_LOC":"1 SALT MARSH CIR Scarborough Maine","Grantee":"HERBIG, KEVIN L","Co.Grantee":"HERBIG, GABRIELLE R","Mailing":"1 SALT MARSH CIR","City":"SCARBOROUGH","State":"ME","Zip":4074,"lon":-70.3442,"lat":43.5638},{"STATE_ID":"05200_U010024","PROP_LOC":"3 SALT MARSH CIR Scarborough Maine","Grantee":"SAPAN, CLIFFORD","Co.Grantee":"SAPAN, MARGARITA PEREZ","Mailing":"PO BOX 430","City":"SCARBOROUGH","State":"ME","Zip":4070,"lon":-70.3445,"lat":43.5633},{"STATE_ID":"05200_U010025","PROP_LOC":"5 SALT MARSH CIR Scarborough Maine","Grantee":"SMALL, RODERIC & PATRICIA","Co.Grantee":"","Mailing":"5 SALT MARSH CIR","City":"SCARBOROUGH","State":"ME","Zip":4074,"lon":-70.3459,"lat":43.5637},{"STATE_ID":"05200_U010026","PROP_LOC":"4 SALT MARSH CIR Scarborough Maine","Grantee":"BYRNE, RICHARD S","Co.Grantee":"BYRNE, MICHELE N","Mailing":"4 SALT MARSH CIR","City":"SCARBOROUGH","State":"ME","Zip":4074,"lon":-70.3449,"lat":43.5642},{"STATE_ID":"05200_U010027","PROP_LOC":"2 SALT MARSH CIR Scarborough Maine","Grantee":"KIRK, JEFFREY J","Co.Grantee":"","Mailing":"2 SALT MARSH CIR","City":"SCARBOROUGH","State":"ME","Zip":4074,"lon":-70.3443,"lat":43.5644},{"STATE_ID":"05200_U010028","PROP_LOC":"5 SANDY POINT RD Scarborough Maine","Grantee":"KELLER, BENJAMIN L","Co.Grantee":"","Mailing":"5 SANDY POINT RD","City":"SCARBOROUGH","State":"ME","Zip":4074,"lon":-70.3441,"lat":43.5663},{"STATE_ID":"05200_U010029","PROP_LOC":"3 SANDY POINT RD Scarborough Maine","Grantee":"BASSETT, JULIE","Co.Grantee":"KELLY, PATRICK","Mailing":"3 SANDY POINT RD","City":"SCARBOROUGH","State":"ME","Zip":4074,"lon":-70.3441,"lat":43.5657},{"STATE_ID":"05200_U010030","PROP_LOC":"1 SANDY POINT RD Scarborough Maine","Grantee":"OCONNER, PHILIP L","Co.Grantee":"OCONNER, CATHERINE M","Mailing":"1 SANDY POINT RD","City":"SCARBOROUGH","State":"ME","Zip":4074,"lon":-70.3438,"lat":43.5652},{"STATE_ID":"05200_U010031","PROP_LOC":"26 HIGH POINT RD Scarborough Maine","Grantee":"MURRAY, KATHLEEN L","Co.Grantee":"LOCKE, DEREK F","Mailing":"26 HIGH POINT RD","City":"SCARBOROUGH","State":"ME","Zip":4074,"lon":-70.3431,"lat":43.5654},{"STATE_ID":"05200_U010032","PROP_LOC":"28 HIGH POINT RD Scarborough Maine","Grantee":"JOHNSTON, JEFFREY A","Co.Grantee":"JOHNSTON, KELLY A","Mailing":"28 HIGH POINT RD","City":"SCARBOROUGH","State":"ME","Zip":4074,"lon":-70.3428,"lat":43.5657},{"STATE_ID":"05200_U024001","PROP_LOC":"270 PINE POINT RD Scarborough Maine","Grantee":"GAMBINO, JAMES J","Co.Grantee":"","Mailing":"963 ELDORADO LN","City":"LOUISVILLE","State":"CO","Zip":80027,"lon":-70.3556,"lat":43.5488},{"STATE_ID":"05200_U024001A","PROP_LOC":"276 PINE POINT RD Scarborough Maine","Grantee":"KIDDER, GERARD J","Co.Grantee":"KIDDER, MARYLYN","Mailing":"276 PINE POINT RD","City":"SCARBOROUGH","State":"ME","Zip":4074,"lon":-70.3548,"lat":43.5481},{"STATE_ID":"05200_U024001B","PROP_LOC":"272 PINE POINT RD Scarborough Maine","Grantee":"CANGE, SUZANNE M","Co.Grantee":"","Mailing":"272 PINE POINT RD","City":"SCARBOROUGH","State":"ME","Zip":4074,"lon":-70.3551,"lat":43.5485},{"STATE_ID":"05200_U024002","PROP_LOC":"280 PINE POINT RD Scarborough Maine","Grantee":"FRANK, CRAIG J","Co.Grantee":"FRANK, BETH A","Mailing":"51 ROCKINGHAM AVE","City":"PORTSMOUTH","State":"NH","Zip":3801,"lon":-70.3545,"lat":43.5478},{"STATE_ID":"05200_U024003","PROP_LOC":"284 PINE POINT RD Scarborough Maine","Grantee":"GAMBINO, PATRICIA","Co.Grantee":"","Mailing":"284 PINE POINT RD","City":"SCARBOROUGH","State":"ME","Zip":4074,"lon":-70.3539,"lat":43.5474},{"STATE_ID":"05200_U024004","PROP_LOC":"288 PINE POINT RD Scarborough Maine","Grantee":"ERICKSON, MOIRA","Co.Grantee":"","Mailing":"288 PINE POINT RD","City":"SCARBOROUGH","State":"ME","Zip":4074,"lon":-70.3533,"lat":43.5472},{"STATE_ID":"05200_U024005","PROP_LOC":"294 PINE POINT RD Scarborough Maine","Grantee":"STERLING, RICHARD T TRUST; SALISBURY, SARA TRUSTEE","Co.Grantee":"STERLING, BARBARA","Mailing":"265 PINE POINT RD","City":"SCARBOROUGH","State":"ME","Zip":4074,"lon":-70.3518,"lat":43.5484},{"STATE_ID":"05200_U024006","PROP_LOC":"296 PINE POINT RD Scarborough Maine","Grantee":"SALISBURY, SARA F STERLING","Co.Grantee":"SALISBURY, JAMES E","Mailing":"PO BOX 951","City":"SCARBOROUGH","State":"ME","Zip":4070,"lon":-70.3527,"lat":43.5467},{"STATE_ID":"05200_U024007","PROP_LOC":"302 PINE POINT RD Scarborough Maine","Grantee":"LIBBY, RANDALL C","Co.Grantee":"","Mailing":"PO BOX 298","City":"SCARBOROUGH","State":"ME","Zip":4070,"lon":-70.3522,"lat":43.5465},{"STATE_ID":"05200_U024008","PROP_LOC":"304 PINE POINT RD Scarborough Maine","Grantee":"LIBBY, SHERRI D","Co.Grantee":"","Mailing":"PO BOX 298","City":"SCARBOROUGH","State":"ME","Zip":4070,"lon":-70.3518,"lat":43.5464},{"STATE_ID":"05200_U024009","PROP_LOC":"2 HOLLY ST Scarborough Maine","Grantee":"STATE OF MAINE","Co.Grantee":"","Mailing":"UNASSIGNED","City":"SCARBOROUGH","State":"ME","Zip":4074,"lon":-70.3519,"lat":43.5457},{"STATE_ID":"05200_U024010","PROP_LOC":"4 HOLLY ST Scarborough Maine","Grantee":"BURNHAM, HAROLD P II","Co.Grantee":"","Mailing":"PO BOX 2087","City":"SCARBOROUGH","State":"ME","Zip":4070,"lon":-70.3521,"lat":43.5455},{"STATE_ID":"05200_U024011A","PROP_LOC":"NA Scarborough Maine","Grantee":"FLOYD, ERIC A","Co.Grantee":"FLOYD, BRIANNA L","Mailing":"6 HOLLY ST","City":"SCARBOROUGH","State":"ME","Zip":4074,"lon":-70.3345,"lat":43.5902},{"STATE_ID":"05200_U024011B","PROP_LOC":"NA Scarborough Maine","Grantee":"RACZKOWSKI, STANLEY J","Co.Grantee":"RACZKOWSKI, MARLENE G","Mailing":"8 HOLLY ST","City":"SCARBOROUGH","State":"ME","Zip":4074,"lon":-70.3345,"lat":43.5902},{"STATE_ID":"05200_U024014","PROP_LOC":"7 HOLLY ST Scarborough Maine","Grantee":"KUNKEL, PETER J","Co.Grantee":"KUNKELL, KIM R","Mailing":"7 HOLLY ST","City":"SCARBOROUGH","State":"ME","Zip":4074,"lon":-70.3529,"lat":43.5454},{"STATE_ID":"05200_U024015","PROP_LOC":"305 PINE POINT RD Scarborough Maine","Grantee":"DOMINGUE, ROBERT & JOYCE","Co.Grantee":"","Mailing":"59 GREENWOOD RD","City":"ANDOVER","State":"MA","Zip":1810,"lon":-70.3522,"lat":43.5459},{"STATE_ID":"05200_U024016","PROP_LOC":"2 BICKFORD ST Scarborough Maine","Grantee":"ALBANO, TINA L","Co.Grantee":"ALBANO, KEVIN J","Mailing":"159 S MONSON RD","City":"HAMPDEN","State":"MA","Zip":1036,"lon":-70.3525,"lat":43.5461},{"STATE_ID":"05200_U024017","PROP_LOC":"4 BICKFORD ST Scarborough Maine","Grantee":"CAPIZZO, JOHN J & LOUISE A","Co.Grantee":"","Mailing":"4 BICKFORD ST","City":"SCARBOROUGH","State":"ME","Zip":4074,"lon":-70.3525,"lat":43.5459},{"STATE_ID":"05200_U024018","PROP_LOC":"6 BICKFORD ST Scarborough Maine","Grantee":"KEENE, EVA G","Co.Grantee":"","Mailing":"6 BICKORD ST","City":"SCARBOROUGH","State":"ME","Zip":4074,"lon":-70.3531,"lat":43.5457},{"STATE_ID":"05200_U024019","PROP_LOC":"8 BICKFORD ST Scarborough Maine","Grantee":"WEINSTEIN, ALAN","Co.Grantee":"KAVANAGH, BARBARA","Mailing":"8 BICKFORD ST","City":"CAPE NEDDICK","State":"ME","Zip":3902,"lon":-70.3532,"lat":43.5456},{"STATE_ID":"05200_U024020","PROP_LOC":"10 BICKFORD ST Scarborough Maine","Grantee":"SMITH, DARLENE T","Co.Grantee":"RABIDEAU, DAVID J","Mailing":"10 BICKFORD ST","City":"SCARBOROUGH","State":"ME","Zip":4074,"lon":-70.3535,"lat":43.5454},{"STATE_ID":"05200_U024021","PROP_LOC":"12 BICKFORD ST Scarborough Maine","Grantee":"KUNKEL, JOSEPH G","Co.Grantee":"KUNKEL, GERDA I","Mailing":"12 BICKFORD ST","City":"SCARBOROUGH","State":"ME","Zip":4074,"lon":-70.3537,"lat":43.5452},{"STATE_ID":"05200_U024023","PROP_LOC":"14 BICKFORD ST Scarborough Maine","Grantee":"WHITE, JAMES PATRICK JR","Co.Grantee":"WHITE, HEIDI ANNE","Mailing":"14 BICKFORD ST","City":"SCARBOROUGH","State":"ME","Zip":4074,"lon":-70.3539,"lat":43.545},{"STATE_ID":"05200_U024028","PROP_LOC":"15 BICKFORD ST Scarborough Maine","Grantee":"HOWARD, RENEE T","Co.Grantee":"HOWARD, ROGER W","Mailing":"15 BICKFORD ST","City":"SCARBOROUGH","State":"ME","Zip":4074,"lon":-70.3547,"lat":43.5452},{"STATE_ID":"05200_U024029","PROP_LOC":"13 BICKFORD ST Scarborough Maine","Grantee":"FINLEY, KARL L & SANDRA L","Co.Grantee":"","Mailing":"13 BICKFORD ST","City":"SCARBOROUGH","State":"ME","Zip":4074,"lon":-70.3543,"lat":43.5453},{"STATE_ID":"05200_U024030","PROP_LOC":"11 BICKFORD ST Scarborough Maine","Grantee":"SOMMER, EVA C","Co.Grantee":"","Mailing":"11 BICKFORD ST","City":"SCARBOROUGH","State":"ME","Zip":4074,"lon":-70.3543,"lat":43.5455},{"STATE_ID":"05200_U024031","PROP_LOC":"7 BICKFORD ST Scarborough Maine","Grantee":"QUIRK, STEPHEN M & JANE L","Co.Grantee":"","Mailing":"9 BICKFORD ST","City":"SCARBOROUGH","State":"ME","Zip":4074,"lon":-70.3539,"lat":43.5457},{"STATE_ID":"05200_U024032","PROP_LOC":"3 BICKFORD ST Scarborough Maine","Grantee":"GARNER, DANA A","Co.Grantee":"","Mailing":"3 BICKFORD ST","City":"SCARBOROUGH","State":"ME","Zip":4074,"lon":-70.3535,"lat":43.5463},{"STATE_ID":"05200_U024033","PROP_LOC":"1 BICKFORD ST Scarborough Maine","Grantee":"CHAMBERLAIN, JAMES T","Co.Grantee":"","Mailing":"1 BICKFORD ST","City":"SCARBOROUGH","State":"ME","Zip":4074,"lon":-70.3529,"lat":43.5464},{"STATE_ID":"05200_U024034","PROP_LOC":"295 PINE POINT RD Scarborough Maine","Grantee":"SCHNEIDER, AMY S","Co.Grantee":"","Mailing":"PO BOX 573","City":"WATERBORO","State":"ME","Zip":4087,"lon":-70.3531,"lat":43.5464},{"STATE_ID":"05200_U024035","PROP_LOC":"291 PINE POINT RD Scarborough Maine","Grantee":"NADEAU, JAY A","Co.Grantee":"NADEAU, CORINNA L","Mailing":"291 PINE POINT RD","City":"SCARBOROUGH","State":"ME","Zip":4074,"lon":-70.3533,"lat":43.5465},{"STATE_ID":"05200_U024042","PROP_LOC":"285 PINE POINT RD Scarborough Maine","Grantee":"CHAMBERLIN, PATRICIA L","Co.Grantee":"","Mailing":"285 PINE POINT RD","City":"SCARBOROUGH","State":"ME","Zip":4074,"lon":-70.3539,"lat":43.547},{"STATE_ID":"05200_U024042A","PROP_LOC":"287 PINE POINT RD Scarborough Maine","Grantee":"SKLARZ, JAMES G","Co.Grantee":"","Mailing":"37 36 PINECREST DR","City":"WORCESTER","State":"MA","Zip":1604,"lon":-70.3537,"lat":43.5468},{"STATE_ID":"05200_U024043","PROP_LOC":"6 SNOW RD Scarborough Maine","Grantee":"BAIZLEY, MARYLOU","Co.Grantee":"","Mailing":"6 SNOW RD","City":"SCARBOROUGH","State":"ME","Zip":4074,"lon":-70.3546,"lat":43.5465},{"STATE_ID":"05200_U024043A","PROP_LOC":"4 SNOW RD Scarborough Maine","Grantee":"BAIZLEY, GWENDOLYN","Co.Grantee":"","Mailing":"4 SNOW RD","City":"SCARBOROUGH","State":"ME","Zip":4074,"lon":-70.3541,"lat":43.5465},{"STATE_ID":"05200_U024044","PROP_LOC":"10 SNOW RD Scarborough Maine","Grantee":"LOMAC, JEAN E REVOCABLE TRUST","Co.Grantee":"LOMAC, JEAN E TRUSTEE","Mailing":"4147 FALCON ST","City":"SAN DIEGO","State":"CA","Zip":92103,"lon":-70.3549,"lat":43.5462},{"STATE_ID":"05200_U024045","PROP_LOC":"12 SNOW RD Scarborough Maine","Grantee":"JUDGE, SHARON A","Co.Grantee":"","Mailing":"15A REVERE ST","City":"ARLINGTON","State":"MA","Zip":2476,"lon":-70.3551,"lat":43.5461},{"STATE_ID":"05200_U024047","PROP_LOC":"3 SNOW RD Scarborough Maine","Grantee":"THURLOW, MARY B","Co.Grantee":"","Mailing":"3 SNOW RD","City":"SCARBOROUGH","State":"ME","Zip":4074,"lon":-70.3551,"lat":43.5468},{"STATE_ID":"05200_U024047A","PROP_LOC":"1 SNOW RD Scarborough Maine","Grantee":"TAPLEY, SUSAN M","Co.Grantee":"TAPLEY, GARY A","Mailing":"1 SNOW RD","City":"SCARBOROUGH","State":"ME","Zip":4074,"lon":-70.3546,"lat":43.5471},{"STATE_ID":"05200_U024047B","PROP_LOC":"281 PINE POINT RD Scarborough Maine","Grantee":"OUELLETTE, BRENT R","Co.Grantee":"OUELLETTE, RAE","Mailing":"281 PINE POINT RD","City":"SCARBOROUGH","State":"ME","Zip":4074,"lon":-70.3549,"lat":43.5474},{"STATE_ID":"05200_U024049","PROP_LOC":"273 PINE POINT RD Scarborough Maine","Grantee":"FKT BAYLEY FAMILY LIMITED PARTNERSHIP","Co.Grantee":"","Mailing":"27 ROSS RD","City":"SCARBOROUGH","State":"ME","Zip":4074,"lon":-70.3562,"lat":43.548},{"STATE_ID":"05200_U024050","PROP_LOC":"271 PINE POINT RD Scarborough Maine","Grantee":"OCLAIR, ALOIS A LIVING TRUST","Co.Grantee":"VEZINA, CATHERINE & ERICKSON, ELIZABETH CO TRUSTEE","Mailing":"PO BOX 1143","City":"NAPLES","State":"ME","Zip":4055,"lon":-70.3559,"lat":43.5483},{"STATE_ID":"05200_U024051","PROP_LOC":"269 PINE POINT RD Scarborough Maine","Grantee":"LYON, JOHN K","Co.Grantee":"LYON, MARIA ISABEL","Mailing":"269 PINE POINT RD","City":"SCARBOROUGH","State":"ME","Zip":4074,"lon":-70.3562,"lat":43.5485},{"STATE_ID":"05200_U024052","PROP_LOC":"265 PINE POINT RD Scarborough Maine","Grantee":"STERLING, BARBARA L","Co.Grantee":"","Mailing":"PO BOX 951","City":"SCARBOROUGH","State":"ME","Zip":4070,"lon":-70.3561,"lat":43.5491},{"STATE_ID":"05200_U024053","PROP_LOC":"8 ROSS RD Scarborough Maine","Grantee":"HARVIE, MICHAEL A","Co.Grantee":"HARVIE, LORRAINE SP","Mailing":"8 ROSS RD","City":"SCARBOROUGH","State":"ME","Zip":4074,"lon":-70.3571,"lat":43.5487},{"STATE_ID":"05200_U024054","PROP_LOC":"10 ROSS RD Scarborough Maine","Grantee":"OWENS, KARA B","Co.Grantee":"","Mailing":"10 ROSS RD","City":"SCARBOROUGH","State":"ME","Zip":4074,"lon":-70.3573,"lat":43.5487},{"STATE_ID":"05200_U024055","PROP_LOC":"12 ROSS RD Scarborough Maine","Grantee":"CHASE, STEPHANIE A","Co.Grantee":"FOX, CHARLES W","Mailing":"12 ROSS RD","City":"SCARBOROUGH","State":"ME","Zip":4074,"lon":-70.3578,"lat":43.5486},{"STATE_ID":"05200_U024056","PROP_LOC":"14 ROSS RD Scarborough Maine","Grantee":"WEBER, BILLY A","Co.Grantee":"WEBER, SUSAN C","Mailing":"16 LANDON AV","City":"CATSKILL","State":"NY","Zip":12414,"lon":-70.3582,"lat":43.5483},{"STATE_ID":"05200_U024057","PROP_LOC":"18 ROSS RD Scarborough Maine","Grantee":"LAKE, SHELLY L","Co.Grantee":"","Mailing":"18 ROSS RD","City":"SCARBOROUGH","State":"ME","Zip":4074,"lon":-70.3585,"lat":43.5483},{"STATE_ID":"05200_U024058","PROP_LOC":"20 ROSS RD Scarborough Maine","Grantee":"FONTANA, MICHAEL F","Co.Grantee":"FONTANA, PATRICIA F","Mailing":"20 ROSS RD","City":"SCARBOROUGH","State":"ME","Zip":4074,"lon":-70.3592,"lat":43.5481},{"STATE_ID":"05200_U025001","PROP_LOC":"210 PINE POINT RD Scarborough Maine","Grantee":"ROACH, DALE E","Co.Grantee":"BROWN, PAULA K","Mailing":"210 PINE POINT RD","City":"SCARBOROUGH","State":"ME","Zip":4074,"lon":-70.3601,"lat":43.5546},{"STATE_ID":"05200_U025002","PROP_LOC":"212 PINE POINT RD Scarborough Maine","Grantee":"OBRIEN, LOIS","Co.Grantee":"","Mailing":"PO BOX 161","City":"PALERMO","State":"ME","Zip":4354,"lon":-70.3594,"lat":43.5544},{"STATE_ID":"05200_U025003A","PROP_LOC":"NA Scarborough Maine","Grantee":"CHAMBERLAIN, MATTHEW G","Co.Grantee":"","Mailing":"762 MAIN ST","City":"SOUTH PORTLAND","State":"ME","Zip":4106,"lon":-70.3345,"lat":43.5902},{"STATE_ID":"05200_U025003B","PROP_LOC":"NA Scarborough Maine","Grantee":"KELMAN, DANIEL R","Co.Grantee":"KELMAN, BRIANA L","Mailing":"220 PINE POINT RD","City":"SCARBOROUGH","State":"ME","Zip":4074,"lon":-70.3345,"lat":43.5902},{"STATE_ID":"05200_U025005","PROP_LOC":"224 PINE POINT RD Scarborough Maine","Grantee":"SALVATORE, ELEANORA","Co.Grantee":"OBRIEN, WILLIAM H","Mailing":"224 PINE POINT RD","City":"SCARBOROUGH","State":"ME","Zip":4074,"lon":-70.3579,"lat":43.5535},{"STATE_ID":"05200_U025006","PROP_LOC":"228 PINE POINT RD Scarborough Maine","Grantee":"LYRA TRUST","Co.Grantee":"SNOW, SUSAN RUTH TTEE","Mailing":"5607 STONEHENGE DR","City":"RICHARDSON","State":"TX","Zip":75082,"lon":-70.3574,"lat":43.5532},{"STATE_ID":"05200_U025007","PROP_LOC":"230 PINE POINT RD Scarborough Maine","Grantee":"LYRA TRUST","Co.Grantee":"SNOW, SUSAN RUTH TTEE","Mailing":"5607 STONEHENGE DR","City":"RICHARDSON","State":"TX","Zip":75082,"lon":-70.3571,"lat":43.553},{"STATE_ID":"05200_U025009","PROP_LOC":"10 SEAVEY LANDING RD Scarborough Maine","Grantee":"DAVIES, STACIA B","Co.Grantee":"","Mailing":"PO BOX 781","City":"SCARBOROUGH","State":"ME","Zip":4070,"lon":-70.3553,"lat":43.5531},{"STATE_ID":"05200_U025010","PROP_LOC":"12 SEAVEY LANDING RD Scarborough Maine","Grantee":"VADNAIS, DONALD","Co.Grantee":"VADNAIS, KATHLEEN","Mailing":"101 PROVIDENCE ST","City":"CHICOPEE","State":"MA","Zip":1020,"lon":-70.355,"lat":43.5532},{"STATE_ID":"05200_U025011","PROP_LOC":"17 SEAVEY LANDING RD Scarborough Maine","Grantee":"STUCKER, CRAIG E","Co.Grantee":"PEPIN, JANET L","Mailing":"17 SEAVEY LANDING RD","City":"SCARBOROUGH","State":"ME","Zip":4074,"lon":-70.3534,"lat":43.5532},{"STATE_ID":"05200_U025012","PROP_LOC":"13 SEAVEY LANDING RD Scarborough Maine","Grantee":"THIBEAU, EDWARD E","Co.Grantee":"","Mailing":"13 SEAVEY LANDING RD","City":"SCARBOROUGH","State":"ME","Zip":4074,"lon":-70.354,"lat":43.5531},{"STATE_ID":"05200_U025013","PROP_LOC":"9 SEAVEY LANDING RD Scarborough Maine","Grantee":"BLODGETT, DONALD II","Co.Grantee":"","Mailing":"9 SEAVEY LANDING RD","City":"SCARBOROUGH","State":"ME","Zip":4074,"lon":-70.3562,"lat":43.5525},{"STATE_ID":"05200_U025014","PROP_LOC":"NA Scarborough Maine","Grantee":"CORLISS, PETER","Co.Grantee":"CORLISS, CAROLYN M","Mailing":"7 SEAVEY LANDING RD","City":"SCARBOROUGH","State":"ME","Zip":4074,"lon":-70.3345,"lat":43.5902},{"STATE_ID":"05200_U025015","PROP_LOC":"236 PINE POINT RD Scarborough Maine","Grantee":"BLUE POINT CONGREGATIONAL CHURCH UCC","Co.Grantee":"","Mailing":"PO BOX 2055","City":"SCARBOROUGH","State":"ME","Zip":4070,"lon":-70.3565,"lat":43.5523},{"STATE_ID":"05200_U025016","PROP_LOC":"240 PINE POINT RD Scarborough Maine","Grantee":"SAM HOLDINGS LLC","Co.Grantee":"","Mailing":"240 PINE POINT RD","City":"SCARBOROUGH","State":"ME","Zip":4074,"lon":-70.3563,"lat":43.5518},{"STATE_ID":"05200_U025016A","PROP_LOC":"11 BRADFORD LN Scarborough Maine","Grantee":"SCARBOROUGH, TOWN OF","Co.Grantee":"","Mailing":"PO BOX 360","City":"SCARBOROUGH","State":"ME","Zip":4070,"lon":-70.3515,"lat":43.5523},{"STATE_ID":"05200_U025016B","PROP_LOC":"5 BRADFORD LN Scarborough Maine","Grantee":"MULCAHEY, MICHELLE A","Co.Grantee":"MULCAHEY, PATRICK B","Mailing":"5 BRADFORD LN","City":"SCARBOROUGH","State":"ME","Zip":4074,"lon":-70.3556,"lat":43.5518},{"STATE_ID":"05200_U025016C","PROP_LOC":"7 BRADFORD LN Scarborough Maine","Grantee":"CLUKEY, GINA","Co.Grantee":"CLUKEY, STEPHEN D","Mailing":"7 BRADFORD LN","City":"SCARBOROUGH","State":"ME","Zip":4074,"lon":-70.3551,"lat":43.5519},{"STATE_ID":"05200_U025016D","PROP_LOC":"9 BRADFORD LN Scarborough Maine","Grantee":"MORSE, GARY T","Co.Grantee":"MORSE, GLYNIS G","Mailing":"2809 GARNET RIDGE DR","City":"LEANDER","State":"TX","Zip":78641,"lon":-70.3546,"lat":43.5519},{"STATE_ID":"05200_U025017","PROP_LOC":"242 PINE POINT RD Scarborough Maine","Grantee":"POLCAR, LEAH E","Co.Grantee":"HILMARSSON, BJARNI R","Mailing":"242 PINE POINT RD","City":"SCARBOROUGH","State":"ME","Zip":4074,"lon":-70.3565,"lat":43.5515},{"STATE_ID":"05200_U025018","PROP_LOC":"244 PINE POINT RD Scarborough Maine","Grantee":"BELL, JONATHAN DAVID","Co.Grantee":"BELL, BRIANNA VICTORIA","Mailing":"2 OCEAN VIEW RD","City":"SCARBOROUGH","State":"ME","Zip":4074,"lon":-70.3563,"lat":43.5513},{"STATE_ID":"05200_U025019","PROP_LOC":"4 OCEAN VIEW RD Scarborough Maine","Grantee":"MACLACHLAN, KATRINA","Co.Grantee":"","Mailing":"4 OCEAN VIEW RD","City":"SCARBOROUGH","State":"ME","Zip":4074,"lon":-70.356,"lat":43.5513},{"STATE_ID":"05200_U025020","PROP_LOC":"6 OCEAN VIEW RD Scarborough Maine","Grantee":"RICHARDSON, JOHN W","Co.Grantee":"RICHARDSON, STEPHANIE A","Mailing":"6 OCEAN VIEW RD","City":"SCARBOROUGH","State":"ME","Zip":4074,"lon":-70.3558,"lat":43.5513},{"STATE_ID":"05200_U025021","PROP_LOC":"8 OCEAN VIEW RD Scarborough Maine","Grantee":"COLPRITT, ARLENE","Co.Grantee":"","Mailing":"8 OCEAN VIEW RD","City":"SCARBOROUGH","State":"ME","Zip":4074,"lon":-70.3555,"lat":43.5513},{"STATE_ID":"05200_U025022","PROP_LOC":"10 OCEAN VIEW RD Scarborough Maine","Grantee":"MILLER, LYNDA","Co.Grantee":"","Mailing":"10 OCEAN VIEW RD","City":"SCARBOROUGH","State":"ME","Zip":4074,"lon":-70.3551,"lat":43.5514},{"STATE_ID":"05200_U025023","PROP_LOC":"12 OCEAN VIEW RD Scarborough Maine","Grantee":"PEDERSEN, ANDREW M","Co.Grantee":"","Mailing":"PO BOX 8355","City":"PORTLAND","State":"ME","Zip":4104,"lon":-70.3548,"lat":43.5513},{"STATE_ID":"05200_U025024","PROP_LOC":"16 OCEAN VIEW RD Scarborough Maine","Grantee":"FRITZ, JUSTIN E","Co.Grantee":"","Mailing":"16 OCEAN VIEW RD","City":"SCARBOROUGH","State":"ME","Zip":4074,"lon":-70.3544,"lat":43.5514},{"STATE_ID":"05200_U025026","PROP_LOC":"18 OCEAN VIEW RD Scarborough Maine","Grantee":"SHOREY, JESSICA R","Co.Grantee":"","Mailing":"18 OCEAN VIEW RD","City":"SCARBOROUGH","State":"ME","Zip":4074,"lon":-70.3539,"lat":43.5515},{"STATE_ID":"05200_U025027","PROP_LOC":"20 OCEAN VIEW RD Scarborough Maine","Grantee":"HORVATH, STEPHEN J","Co.Grantee":"HORVATH, MARGARET J","Mailing":"20 OCEAN VIEW RD","City":"SCARBOROUGH","State":"ME","Zip":4074,"lon":-70.3535,"lat":43.5515},{"STATE_ID":"05200_U025028","PROP_LOC":"22 OCEAN VIEW RD Scarborough Maine","Grantee":"CROWELL, KEVIN D","Co.Grantee":"","Mailing":"22 OCEAN VIEW RD","City":"SCARBOROUGH","State":"ME","Zip":4074,"lon":-70.3533,"lat":43.5515},{"STATE_ID":"05200_U025029","PROP_LOC":"24 OCEAN VIEW RD Scarborough Maine","Grantee":"LUFKIN, LESLIE G","Co.Grantee":"POLLOCK, RICHARD E","Mailing":"20 FLAHERTY LN","City":"BETHEL","State":"ME","Zip":4217,"lon":-70.3528,"lat":43.5516},{"STATE_ID":"05200_U025030","PROP_LOC":"26 OCEAN VIEW RD Scarborough Maine","Grantee":"AUBREY, PAUL D","Co.Grantee":"","Mailing":"26 OCEAN VIEW RD","City":"SCARBOROUGH","State":"ME","Zip":4074,"lon":-70.3524,"lat":43.5517},{"STATE_ID":"05200_U025031","PROP_LOC":"27 OCEAN VIEW RD Scarborough Maine","Grantee":"COONEY, CARRIE L","Co.Grantee":"","Mailing":"27 OCEAN VIEW RD","City":"SCARBOROUGH","State":"ME","Zip":4074,"lon":-70.3521,"lat":43.5514},{"STATE_ID":"05200_U025032","PROP_LOC":"23 OCEAN VIEW RD Scarborough Maine","Grantee":"ALLEN, MELISSA C","Co.Grantee":"","Mailing":"23 OCEAN VIEW RD","City":"SCARBOROUGH","State":"ME","Zip":4074,"lon":-70.3526,"lat":43.5513},{"STATE_ID":"05200_U025033","PROP_LOC":"21 OCEAN VIEW RD Scarborough Maine","Grantee":"ALLARD, SHARON T","Co.Grantee":"","Mailing":"21 OCEAN VIEW RD","City":"SCARBOROUGH","State":"ME","Zip":4074,"lon":-70.3531,"lat":43.5512},{"STATE_ID":"05200_U025034","PROP_LOC":"19 OCEAN VIEW RD Scarborough Maine","Grantee":"HEISLER, MARK A","Co.Grantee":"HEISLER, LINDA A","Mailing":"19 OCEAN VIEW RD","City":"SCARBOROUGH","State":"ME","Zip":4074,"lon":-70.3534,"lat":43.5512},{"STATE_ID":"05200_U025035","PROP_LOC":"17 OCEAN VIEW RD Scarborough Maine","Grantee":"PRATT, CORY DION","Co.Grantee":"","Mailing":"17 OCEAN VIEW RD","City":"SCARBOROUGH","State":"ME","Zip":4074,"lon":-70.3538,"lat":43.5511},{"STATE_ID":"05200_U025036","PROP_LOC":"15 OCEAN VIEW RD Scarborough Maine","Grantee":"PULKKINEN, GEORGE P","Co.Grantee":"MACLACHLAN, J GLENDA","Mailing":"15 OCEAN VIEW RD","City":"SCARBOROUGH","State":"ME","Zip":4074,"lon":-70.3541,"lat":43.5511},{"STATE_ID":"05200_U025037","PROP_LOC":"13 OCEAN VIEW RD Scarborough Maine","Grantee":"COLLINS, RACHEL","Co.Grantee":"","Mailing":"13 OCEAN VIEW RD","City":"SCARBOROUGH","State":"ME","Zip":4074,"lon":-70.3544,"lat":43.5511},{"STATE_ID":"05200_U025038","PROP_LOC":"11 OCEAN VIEW RD Scarborough Maine","Grantee":"ANDREWS, LAURA L","Co.Grantee":"ANDREWS, JOSHUA B","Mailing":"11 OCEAN VIEW RD","City":"SCARBOROUGH","State":"ME","Zip":4074,"lon":-70.3547,"lat":43.551},{"STATE_ID":"05200_U025039","PROP_LOC":"9 OCEAN VIEW RD Scarborough Maine","Grantee":"KIMBALL, AMANDA B","Co.Grantee":"BLANCHARD, IAN A","Mailing":"9 OCEAN VIEW RD","City":"SCARBOROUGH","State":"ME","Zip":4074,"lon":-70.3551,"lat":43.5509},{"STATE_ID":"05200_U025040","PROP_LOC":"5 OCEAN VIEW RD Scarborough Maine","Grantee":"FLANNERY, STEPHEN L","Co.Grantee":"","Mailing":"5 OCEAN VIEW RD","City":"SCARBOROUGH","State":"ME","Zip":4074,"lon":-70.3556,"lat":43.551},{"STATE_ID":"05200_U025041","PROP_LOC":"3 OCEAN VIEW RD Scarborough Maine","Grantee":"JODAKE LLC","Co.Grantee":"","Mailing":"252 US ROUTE 1","City":"SCARBOROUGH","State":"ME","Zip":4074,"lon":-70.356,"lat":43.551},{"STATE_ID":"05200_U025042","PROP_LOC":"248 PINE POINT RD Scarborough Maine","Grantee":"PERRY, JEFFERSON III","Co.Grantee":"","Mailing":"131 FLETCHER ST","City":"KENNEBUNK","State":"ME","Zip":4043,"lon":-70.3564,"lat":43.551},{"STATE_ID":"05200_U025043","PROP_LOC":"250 PINE POINT RD Scarborough Maine","Grantee":"HAGSTROM, PAMELA C ET AL","Co.Grantee":"","Mailing":"250 PINE POINT RD","City":"SCARBOROUGH","State":"ME","Zip":4070,"lon":-70.356,"lat":43.5508},{"STATE_ID":"05200_U025044","PROP_LOC":"252 PINE POINT RD Scarborough Maine","Grantee":"COUPE, PHILIP & LINDA","Co.Grantee":"","Mailing":"251 PINE POINT RD","City":"SCARBOROUGH","State":"ME","Zip":4074,"lon":-70.3563,"lat":43.5505},{"STATE_ID":"05200_U026001","PROP_LOC":"23 ROSS RD Scarborough Maine","Grantee":"BAYLEY, THOMAS R","Co.Grantee":"BAYLEY, JAMIE M","Mailing":"52 ROSS RD","City":"SCARBOROUGH","State":"ME","Zip":4074,"lon":-70.3605,"lat":43.5483},{"STATE_ID":"05200_U026001A","PROP_LOC":"21 ROSS RD Scarborough Maine","Grantee":"CONSTANTINE, DENO J","Co.Grantee":"CONSTANTINE, K LESLIE","Mailing":"21 ROSS RD","City":"SCARBOROUGH","State":"ME","Zip":4074,"lon":-70.3606,"lat":43.5492},{"STATE_ID":"05200_U026002","PROP_LOC":"00 JASPER ST Scarborough Maine","Grantee":"SCARBOROUGH, TOWN OF","Co.Grantee":"","Mailing":"UNASSIGNED","City":"SCARBOROUGH","State":"ME","Zip":4074,"lon":-70.3632,"lat":43.5511},{"STATE_ID":"05200_U026003","PROP_LOC":"19 ROSS RD Scarborough Maine","Grantee":"BAYLEY, PHILIP & MILDRED","Co.Grantee":"","Mailing":"19 ROSS RD","City":"SCARBOROUGH","State":"ME","Zip":4074,"lon":-70.3596,"lat":43.5485},{"STATE_ID":"05200_U026005","PROP_LOC":"15 ROSS RD Scarborough Maine","Grantee":"MOULTON, CLIFFORD","Co.Grantee":"MOULTON, LINDA","Mailing":"15 ROSS RD","City":"SCARBOROUGH","State":"ME","Zip":4074,"lon":-70.358,"lat":43.5487},{"STATE_ID":"05200_U026006","PROP_LOC":"9 ROSS RD Scarborough Maine","Grantee":"BLAIS, SHELDON","Co.Grantee":"","Mailing":"9 ROSS RD","City":"SCARBOROUGH","State":"ME","Zip":4074,"lon":-70.3574,"lat":43.549},{"STATE_ID":"05200_U026007","PROP_LOC":"7 ROSS RD Scarborough Maine","Grantee":"AMARA, GARY PAUL JR","Co.Grantee":"MARSH, DOROTHY FAYE","Mailing":"7 ROSS RD","City":"SCARBOROUGH","State":"ME","Zip":4074,"lon":-70.3573,"lat":43.5495},{"STATE_ID":"05200_U026008","PROP_LOC":"261 PINE POINT RD Scarborough Maine","Grantee":"DOUGLASS, STEPHEN N","Co.Grantee":"","Mailing":"P O BOX 742","City":"GREENVILLE","State":"ME","Zip":4410,"lon":-70.3566,"lat":43.5493},{"STATE_ID":"05200_U026009","PROP_LOC":"257 PINE POINT RD Scarborough Maine","Grantee":"CARLSON, ELLICE K G","Co.Grantee":"","Mailing":"51 MARJORIE ST","City":"PORTSMOUTH","State":"NH","Zip":3801,"lon":-70.3566,"lat":43.5498},{"STATE_ID":"05200_U026010","PROP_LOC":"255 PINE POINT RD Scarborough Maine","Grantee":"GRAY, CRAIG E & JULIE A","Co.Grantee":"","Mailing":"255 PINE POINT RD","City":"SCARBOROUGH","State":"ME","Zip":4074,"lon":-70.3567,"lat":43.55},{"STATE_ID":"05200_U026012","PROP_LOC":"251 PINE POINT RD Scarborough Maine","Grantee":"COUPE, PHILIP J & LINDA G","Co.Grantee":"","Mailing":"251 PINE POINT RD","City":"SCARBOROUGH","State":"ME","Zip":4074,"lon":-70.357,"lat":43.5504},{"STATE_ID":"05200_U026013","PROP_LOC":"247 PINE POINT RD Scarborough Maine","Grantee":"ELWOOD, CYNTHIA B","Co.Grantee":"ELWOOD, DONALD L","Mailing":"247 PINE POINT RD ","City":"SCARBOROUGH","State":"ME","Zip":4074,"lon":-70.3569,"lat":43.5509},{"STATE_ID":"05200_U026014","PROP_LOC":"4 JASPER ST Scarborough Maine","Grantee":"WOOD, MICHAEL J","Co.Grantee":"","Mailing":"4 JASPER ST","City":"SCARBOROUGH","State":"ME","Zip":4074,"lon":-70.3574,"lat":43.5509},{"STATE_ID":"05200_U026015","PROP_LOC":"6 JASPER ST Scarborough Maine","Grantee":"THURLOW, JOHN P","Co.Grantee":"THURLOW, SUSAN F","Mailing":"82 KING ST","City":"SCARBOROUGH","State":"ME","Zip":4074,"lon":-70.3577,"lat":43.5508},{"STATE_ID":"05200_U026016","PROP_LOC":"8 JASPER ST Scarborough Maine","Grantee":"GLANVILLE, ROBERT W","Co.Grantee":"GLANVILLE, MARGARET V","Mailing":"8 JASPER ST","City":"SCARBOROUGH","State":"ME","Zip":4074,"lon":-70.3579,"lat":43.5507},{"STATE_ID":"05200_U026017","PROP_LOC":"10 JASPER ST Scarborough Maine","Grantee":"TILEY, RAYMOND F II","Co.Grantee":"HEWITT, ANNA G","Mailing":"10 JASPER ST","City":"SCARBOROUGH","State":"ME","Zip":4074,"lon":-70.3585,"lat":43.5507},{"STATE_ID":"05200_U026018","PROP_LOC":"14 JASPER ST Scarborough Maine","Grantee":"VIOLETTE, RACHEL S","Co.Grantee":"VIOLETTE, MYLES L","Mailing":"14 JASPER ST","City":"SCARBOROUGH","State":"ME","Zip":4074,"lon":-70.3591,"lat":43.5506},{"STATE_ID":"05200_U026019","PROP_LOC":"18 JASPER ST Scarborough Maine","Grantee":"WATTS, ROBERT K & DEBORAH M","Co.Grantee":"","Mailing":"18 JASPER ST","City":"SCARBOROUGH","State":"ME","Zip":4074,"lon":-70.3594,"lat":43.5505},{"STATE_ID":"05200_U026020","PROP_LOC":"20 JASPER ST Scarborough Maine","Grantee":"CARRIGAN, TIMOTHY J","Co.Grantee":"","Mailing":"20 JASPER ST","City":"SCARBOROUGH","State":"ME","Zip":4074,"lon":-70.3599,"lat":43.5505},{"STATE_ID":"05200_U026021","PROP_LOC":"22 JASPER ST Scarborough Maine","Grantee":"GLUSE, JAMES D & FAITH A","Co.Grantee":"","Mailing":"22 JASPER ST","City":"SCARBOROUGH","State":"ME","Zip":4074,"lon":-70.3602,"lat":43.5504},{"STATE_ID":"05200_U026023","PROP_LOC":"24 JASPER ST Scarborough Maine","Grantee":"DAILY DOUBLE ENTERPRISES LLC","Co.Grantee":"","Mailing":"PO BOX 56","City":"OLD ORCHARD BEACH","State":"ME","Zip":4064,"lon":-70.3604,"lat":43.5503},{"STATE_ID":"05200_U026024","PROP_LOC":"26 JASPER ST Scarborough Maine","Grantee":"PERREAULT, EVERIL Y","Co.Grantee":"","Mailing":"26 JASPER ST","City":"SCARBOROUGH","State":"ME","Zip":4074,"lon":-70.3607,"lat":43.5503},{"STATE_ID":"05200_U026025","PROP_LOC":"25 JASPER ST Scarborough Maine","Grantee":"JONES, ANDREW A","Co.Grantee":"JONES, BRENDA J","Mailing":"25 JASPER ST","City":"SCARBOROUGH","State":"ME","Zip":4074,"lon":-70.3609,"lat":43.5507},{"STATE_ID":"05200_U026025A","PROP_LOC":"33 JASPER ST Scarborough Maine","Grantee":"PUBLICOVER, BRUCE A","Co.Grantee":"","Mailing":"33 JASPER ST","City":"SCARBOROUGH","State":"ME","Zip":4074,"lon":-70.362,"lat":43.5506},{"STATE_ID":"05200_U026025B","PROP_LOC":"4 STARPINE LN Scarborough Maine","Grantee":"BRAEUER, HARRY R","Co.Grantee":"","Mailing":"4 STARPINE LN","City":"SCARBOROUGH","State":"ME","Zip":4074,"lon":-70.2761,"lat":43.5748},{"STATE_ID":"05200_U026025C","PROP_LOC":"27 JASPER ST Scarborough Maine","Grantee":"MOYNIHAN, JAMES","Co.Grantee":"MOYNIHAN, CATHERINE","Mailing":"30 FAIRFIELD AVE","City":"MALDEN","State":"MA","Zip":2148,"lon":-70.3612,"lat":43.5506},{"STATE_ID":"05200_U026026","PROP_LOC":"23 JASPER ST Scarborough Maine","Grantee":"PERRY, KATHERINE J","Co.Grantee":"PERRY, VAN L","Mailing":"23 JASPER ST","City":"SCARBOROUGH","State":"ME","Zip":4074,"lon":-70.3605,"lat":43.5507},{"STATE_ID":"05200_U026027","PROP_LOC":"4 MERRILL ST Scarborough Maine","Grantee":"GAUDET, SHERRY LYNN","Co.Grantee":"","Mailing":"6 MERRILL ST","City":"SCARBOROUGH","State":"ME","Zip":4074,"lon":-70.3606,"lat":43.5511},{"STATE_ID":"05200_U026029","PROP_LOC":"12 STARPINE LN Scarborough Maine","Grantee":"ROSSNAGEL, GREG A & NANCY M","Co.Grantee":"","Mailing":"12 STARPINE LN","City":"SCARBOROUGH","State":"ME","Zip":4074,"lon":-70.3612,"lat":43.5522},{"STATE_ID":"05200_U026029A","PROP_LOC":"1 STARPINE LN Scarborough Maine","Grantee":"THURLOW, JOHN P","Co.Grantee":"THURLOW, SUSAN F","Mailing":"82 KING ST","City":"SCARBOROUGH","State":"ME","Zip":4074,"lon":-70.3604,"lat":43.5515},{"STATE_ID":"05200_U026029B","PROP_LOC":"8 STARPINE LN Scarborough Maine","Grantee":"CROVO, CHRISTOPHER E","Co.Grantee":"CROVO, NICOLE A","Mailing":"8 STARPINE LN","City":"SCARBOROUGH","State":"ME","Zip":4074,"lon":-70.2752,"lat":43.5742},{"STATE_ID":"05200_U026029C","PROP_LOC":"3 STARPINE LN Scarborough Maine","Grantee":"THURLOW, B MICHAEL","Co.Grantee":"THURLOW, MALVINA","Mailing":"3 STARPINE LN","City":"SCARBOROUGH","State":"ME","Zip":4074,"lon":-70.2758,"lat":43.5749},{"STATE_ID":"05200_U026029D","PROP_LOC":"10 STARPINE LN Scarborough Maine","Grantee":"HARBORWINDS LLC","Co.Grantee":"","Mailing":"470 US ROUTE 1 STE 5","City":"YORK","State":"ME","Zip":3909,"lon":-70.362,"lat":43.5521},{"STATE_ID":"05200_U026031","PROP_LOC":"3 MERRILL ST Scarborough Maine","Grantee":"PROVOST, DONALD P & LINDA","Co.Grantee":"","Mailing":"3 MERRILL ST","City":"SCARBOROUGH","State":"ME","Zip":4074,"lon":-70.36,"lat":43.551},{"STATE_ID":"05200_U026032","PROP_LOC":"19 JASPER ST Scarborough Maine","Grantee":"BLAIS, DENIS P","Co.Grantee":"","Mailing":"19 JASPER ST","City":"SCARBOROUGH","State":"ME","Zip":4074,"lon":-70.3599,"lat":43.5508},{"STATE_ID":"05200_U026033","PROP_LOC":"17 JASPER ST Scarborough Maine","Grantee":"PLACE, REBECCA","Co.Grantee":"PLACE, JORDAN","Mailing":"17 JASPER ST","City":"SCARBOROUGH","State":"ME","Zip":4074,"lon":-70.3595,"lat":43.5509},{"STATE_ID":"05200_U026034","PROP_LOC":"4 DODGE ST Scarborough Maine","Grantee":"VAGLIA, RICHARD","Co.Grantee":"","Mailing":"4 DODGE ST","City":"SCARBOROUGH","State":"ME","Zip":4074,"lon":-70.3596,"lat":43.5512},{"STATE_ID":"05200_U026035","PROP_LOC":"6 DODGE ST Scarborough Maine","Grantee":"ALVAREZ, TAWNY L","Co.Grantee":"","Mailing":"6 DODGE ST","City":"SCARBOROUGH","State":"ME","Zip":4074,"lon":-70.3597,"lat":43.5514},{"STATE_ID":"05200_U026036","PROP_LOC":"8 DODGE ST Scarborough Maine","Grantee":"DOUGLASS, LEONARD","Co.Grantee":"","Mailing":"8 DODGE ST","City":"SCARBOROUGH","State":"ME","Zip":4074,"lon":-70.3597,"lat":43.5517},{"STATE_ID":"05200_U026037","PROP_LOC":"6 BAKER ST Scarborough Maine","Grantee":"FIELDING, DIANE J","Co.Grantee":"","Mailing":"PO BOX 534","City":"SCARBOROUGH","State":"ME","Zip":4070,"lon":-70.3588,"lat":43.5516},{"STATE_ID":"05200_U026038","PROP_LOC":"3 DODGE ST Scarborough Maine","Grantee":"HOWES, FREDERICK E","Co.Grantee":"HOWES, SALLY ANN","Mailing":"3 DODGE ST","City":"SCARBOROUGH","State":"ME","Zip":4074,"lon":-70.3591,"lat":43.5513},{"STATE_ID":"05200_U026039","PROP_LOC":"13 JASPER ST Scarborough Maine","Grantee":"TAYLOR, THOMAS A & AMY J","Co.Grantee":"","Mailing":"13 JASPER ST","City":"SCARBOROUGH","State":"ME","Zip":4074,"lon":-70.3591,"lat":43.5509},{"STATE_ID":"05200_U026040","PROP_LOC":"11 JASPER ST Scarborough Maine","Grantee":"MARTIN, PATRICIA","Co.Grantee":"","Mailing":"11 JASPER ST","City":"SCARBOROUGH","State":"ME","Zip":4074,"lon":-70.3587,"lat":43.551},{"STATE_ID":"05200_U026042","PROP_LOC":"8 BAKER ST Scarborough Maine","Grantee":"MEHLMAN, CAROLYN A","Co.Grantee":"JACQUES, MARC","Mailing":"8 BAKER ST","City":"SCARBOROUGH","State":"ME","Zip":4074,"lon":-70.3589,"lat":43.5519},{"STATE_ID":"05200_U026043","PROP_LOC":"5 BAKER ST Scarborough Maine","Grantee":"MACK, MICHAEL B","Co.Grantee":"MACK, DIANE M","Mailing":"5 BAKER ST","City":"SCARBOROUGH","State":"ME","Zip":4074,"lon":-70.3584,"lat":43.5516},{"STATE_ID":"05200_U026045","PROP_LOC":"7 JASPER ST Scarborough Maine","Grantee":"LAMONTAGNE, RICHARD L TRUST","Co.Grantee":"LAMONTAGNE, HOLLY R TRUST","Mailing":"7 JASPER ST","City":"SCARBOROUGH","State":"ME","Zip":4074,"lon":-70.3581,"lat":43.5511},{"STATE_ID":"05200_U026046","PROP_LOC":"3 JASPER ST Scarborough Maine","Grantee":"BARRETT, KIRK JR","Co.Grantee":"","Mailing":"3 JASPER ST","City":"SCARBOROUGH","State":"ME","Zip":4074,"lon":-70.3576,"lat":43.5512},{"STATE_ID":"05200_U026047","PROP_LOC":"243 PINE POINT RD Scarborough Maine","Grantee":"KELLIS, LEIGH S","Co.Grantee":"","Mailing":"131 SPURWINK RD","City":"SCARBOROUGH","State":"ME","Zip":4074,"lon":-70.3571,"lat":43.5513},{"STATE_ID":"05200_U026048","PROP_LOC":"241 PINE POINT RD Scarborough Maine","Grantee":"SCARBOROUGH, TOWN OF","Co.Grantee":"TENNIS COURTS","Mailing":"241 PINE POINT RD","City":"SCARBOROUGH","State":"ME","Zip":4074,"lon":-70.3576,"lat":43.5515},{"STATE_ID":"05200_U026049","PROP_LOC":"237 PINE POINT RD Scarborough Maine","Grantee":"237 PINE POINT LLC","Co.Grantee":"","Mailing":"9 BROWN ST #2A","City":"PORTLAND","State":"ME","Zip":4101,"lon":-70.3571,"lat":43.5519},{"STATE_ID":"05200_U026050","PROP_LOC":"235 PINE POINT RD Scarborough Maine","Grantee":"LYRA TRUST","Co.Grantee":"SNOW, SUSAN RUTH TTEE","Mailing":"5607 STONEHENGE DR","City":"RICHARDSON","State":"TX","Zip":75082,"lon":-70.3576,"lat":43.552},{"STATE_ID":"05200_U026051","PROP_LOC":"231 PINE POINT RD Scarborough Maine","Grantee":"LYRA TRUST","Co.Grantee":"SNOW, SUSAN RUTH TTEE","Mailing":"5607 STONEHENGE DR","City":"RICHARDSON","State":"TX","Zip":75082,"lon":-70.3589,"lat":43.5522},{"STATE_ID":"05200_U026052","PROP_LOC":"229 PINE POINT RD Scarborough Maine","Grantee":"BIDDEFORD-SACO WATER CO","Co.Grantee":"","Mailing":"93 INDUSTRIAL PARK RD","City":"SACO","State":"ME","Zip":4072,"lon":-70.3582,"lat":43.5526},{"STATE_ID":"05200_U026053","PROP_LOC":"225 PINE POINT RD Scarborough Maine","Grantee":"DEWITT, MICHAEL","Co.Grantee":"DEWITT, KATHRYN S","Mailing":"225 PINE POINT RD","City":"SCARBOROUGH","State":"ME","Zip":4074,"lon":-70.358,"lat":43.553},{"STATE_ID":"05200_U026054","PROP_LOC":"223 PINE POINT RD Scarborough Maine","Grantee":"ARCHER, ERICA A","Co.Grantee":"","Mailing":"223 PINE POINT RD","City":"SCARBOROUGH","State":"ME","Zip":4074,"lon":-70.3582,"lat":43.5532},{"STATE_ID":"05200_U026055","PROP_LOC":"219 PINE POINT RD Scarborough Maine","Grantee":"BLACKIE, ALTHEA D","Co.Grantee":"","Mailing":"219 PINE POINT RD","City":"SCARBOROUGH","State":"ME","Zip":4074,"lon":-70.3589,"lat":43.5536},{"STATE_ID":"05200_U026056","PROP_LOC":"215 PINE POINT RD Scarborough Maine","Grantee":"DELAROSA, ANTONIA C","Co.Grantee":"","Mailing":"215 PINE POINT RD","City":"SCARBOROUGH","State":"ME","Zip":4074,"lon":-70.3595,"lat":43.5537},{"STATE_ID":"05200_U026057","PROP_LOC":"213 PINE POINT RD Scarborough Maine","Grantee":"TURNER, GREGORY P","Co.Grantee":"TURNER, DEBORAH R","Mailing":"213 PINE POINT RD","City":"SCARBOROUGH","State":"ME","Zip":4074,"lon":-70.3632,"lat":43.5526},{"STATE_ID":"05200_U026057A","PROP_LOC":"4 MARINERS CV Scarborough Maine","Grantee":"SCARBOROUGH, TOWN OF","Co.Grantee":"","Mailing":"PO BOX 360","City":"SCARBOROUGH","State":"ME","Zip":4070,"lon":-70.3692,"lat":43.5507},{"STATE_ID":"05200_U026057B","PROP_LOC":"NA Scarborough Maine","Grantee":"TURNER, GREGORY P & DEBORAH R","Co.Grantee":"TURNER, TYLER","Mailing":"213 PINE POINT RD","City":"SCARBOROUGH","State":"ME","Zip":4074,"lon":-70.3345,"lat":43.5902},{"STATE_ID":"05200_U026058","PROP_LOC":"211 PINE POINT RD Scarborough Maine","Grantee":"KINGDON, KEVIN G","Co.Grantee":"BURGESS, JILL E","Mailing":"211 PINE POINT RD","City":"SCARBOROUGH","State":"ME","Zip":4074,"lon":-70.3598,"lat":43.5541},{"STATE_ID":"05200_U026059","PROP_LOC":"207 PINE POINT RD Scarborough Maine","Grantee":"D & D LOBSTER INC","Co.Grantee":"","Mailing":"58 LUFKIN AVE","City":"NORTH YARMOUTH","State":"ME","Zip":4097,"lon":-70.3606,"lat":43.5542},{"STATE_ID":"05200_U026059A","PROP_LOC":"4 STADDLE LN Scarborough Maine","Grantee":"FRANK, CRAIG J","Co.Grantee":"FRANK, BETH A","Mailing":"51 ROCKINGHAM AVE","City":"PORTSMOUTH","State":"NH","Zip":3801,"lon":-70.362,"lat":43.5546},{"STATE_ID":"05200_U026059B","PROP_LOC":"8 STADDLE LN Scarborough Maine","Grantee":"TRICKETT, WILLIAM J JR","Co.Grantee":"TRICKETT, MARION F","Mailing":"8 STADDLE LN","City":"SCARBOROUGH","State":"ME","Zip":4074,"lon":-70.3626,"lat":43.5541},{"STATE_ID":"05200_U026059C","PROP_LOC":"6 STADDLE LN Scarborough Maine","Grantee":"LANNON, MARGARET C","Co.Grantee":"","Mailing":"PO BOX 367","City":"SCARBOROUGH","State":"ME","Zip":4070,"lon":-70.3622,"lat":43.5543},{"STATE_ID":"05200_U026059D","PROP_LOC":"2 STADDLE LN Scarborough Maine","Grantee":"WILCOX, DAVID E","Co.Grantee":"","Mailing":"58 LUFKIN RD","City":"NORTH YARMOUTH","State":"ME","Zip":4097,"lon":-70.3616,"lat":43.5545},{"STATE_ID":"05200_U026059E","PROP_LOC":"0 PINE POINT RD Scarborough Maine","Grantee":"WILCOX, DAVID E","Co.Grantee":"","Mailing":"58 LUFKIN AV","City":"NORTH YARMOUTH","State":"ME","Zip":4074,"lon":-70.3649,"lat":43.5565},{"STATE_ID":"05200_U026060","PROP_LOC":"10 STADDLE LN Scarborough Maine","Grantee":"MCGRATH, DENNIS J","Co.Grantee":"MCGRATH, KATHLEEN E","Mailing":"10 STADDLE LN","City":"SCARBOROUGH","State":"ME","Zip":4074,"lon":-70.3631,"lat":43.5541},{"STATE_ID":"05200_U0265701","PROP_LOC":" Scarborough Maine","Grantee":"DAILY DOUBLE ENTERPRISES LLC","Co.Grantee":"","Mailing":"672 US ROUTE 1","City":"SCARBOROUGH","State":"ME","Zip":4074,"lon":-70.3345,"lat":43.5902},{"STATE_ID":"05200_U0265702","PROP_LOC":" Scarborough Maine","Grantee":"DAILY DOUBLE ENTERPRISES LLC","Co.Grantee":"","Mailing":"672 US ROUTE 1","City":"SCARBOROUGH","State":"ME","Zip":4074,"lon":-70.3345,"lat":43.5902},{"STATE_ID":"05200_U0265703","PROP_LOC":" Scarborough Maine","Grantee":"DAILY DOUBLE ENTERPRISES LLC","Co.Grantee":"","Mailing":"672 US ROUTE 1","City":"SCARBOROUGH","State":"ME","Zip":4074,"lon":-70.3345,"lat":43.5902},{"STATE_ID":"05200_U0265704","PROP_LOC":" Scarborough Maine","Grantee":"DAILY DOUBLE ENTERPRISES LLC","Co.Grantee":"","Mailing":"206 EAST GRAND AVE","City":"OLD ORCHARD BEACH","State":"ME","Zip":4064,"lon":-70.3345,"lat":43.5902},{"STATE_ID":"05200_U0265705","PROP_LOC":" Scarborough Maine","Grantee":"DAILY DOUBLE ENTERPRISES LLC","Co.Grantee":"","Mailing":"672 US ROUTE 1","City":"SCARBOROUGH","State":"ME","Zip":4074,"lon":-70.3345,"lat":43.5902},{"STATE_ID":"05200_U0265706","PROP_LOC":" Scarborough Maine","Grantee":"THEBERGE, MICHAEL J","Co.Grantee":"THEBERGE, TAMI S","Mailing":"18 FOREST PARK UNIT 2","City":"PORTLAND","State":"ME","Zip":4101,"lon":-70.3345,"lat":43.5902},{"STATE_ID":"05200_U0265707","PROP_LOC":" Scarborough Maine","Grantee":"DAILY DOUBLE ENTERPRISES LLC","Co.Grantee":"","Mailing":"672 US ROUTE 1","City":"SCARBOROUGH","State":"ME","Zip":4074,"lon":-70.3345,"lat":43.5902},{"STATE_ID":"05200_U0265708","PROP_LOC":" Scarborough Maine","Grantee":"DAILY DOUBLE ENTERPRISES LLC","Co.Grantee":"","Mailing":"672 US ROUTE 1","City":"SCARBOROUGH","State":"ME","Zip":4074,"lon":-70.3345,"lat":43.5902},{"STATE_ID":"05200_U0265709","PROP_LOC":" Scarborough Maine","Grantee":"DAILY DOUBLE ENTERPRISES LLC","Co.Grantee":"","Mailing":"672 US ROUTE 1","City":"SCARBOROUGH","State":"ME","Zip":4074,"lon":-70.3345,"lat":43.5902},{"STATE_ID":"05200_U0265710","PROP_LOC":" Scarborough Maine","Grantee":"DAILY DOUBLE ENTERPRISES LLC","Co.Grantee":"","Mailing":"672 US ROUTE 1","City":"SCARBOROUGH","State":"ME","Zip":4074,"lon":-70.3345,"lat":43.5902},{"STATE_ID":"05200_U0265711","PROP_LOC":" Scarborough Maine","Grantee":"CARRIER, CHERYL A","Co.Grantee":"CARRIER, JOAN A","Mailing":"57 JASPER ST","City":"SCARBOROUGH","State":"ME","Zip":4074,"lon":-70.3345,"lat":43.5902},{"STATE_ID":"05200_U0265712","PROP_LOC":" Scarborough Maine","Grantee":"GIAMBALVO, LEONARD","Co.Grantee":"GIAMBALVO, LIANE","Mailing":"59 JASPER ST","City":"SCARBOROUGH","State":"ME","Zip":4074,"lon":-70.3345,"lat":43.5902},{"STATE_ID":"05200_U0265713","PROP_LOC":" Scarborough Maine","Grantee":"CUTHBERT, BRIAN J","Co.Grantee":"CUTHBERT, CHARMIAN E","Mailing":"61 JASPER ST","City":"SCARBOROUGH","State":"ME","Zip":4074,"lon":-70.3345,"lat":43.5902},{"STATE_ID":"05200_U0265714","PROP_LOC":" Scarborough Maine","Grantee":"WEISEMAN, AMY B","Co.Grantee":"SINGER, MARK H","Mailing":"63 JASPER ST","City":"SCARBOROUGH","State":"ME","Zip":4074,"lon":-70.3345,"lat":43.5902},{"STATE_ID":"05200_U0265715","PROP_LOC":" Scarborough Maine","Grantee":"OUELLETTE, DAVID MITCHELL","Co.Grantee":"OUELLETTE, HOLLIE LYNN","Mailing":"65 JASPER ST","City":"SCARBOROUGH","State":"ME","Zip":4074,"lon":-70.3345,"lat":43.5902},{"STATE_ID":"05200_U0265716","PROP_LOC":" Scarborough Maine","Grantee":"STEINBACK, MICHAEL A","Co.Grantee":"STEINBECK, CATHY M","Mailing":"54 CEDAR HILL DRIVE","City":"ASHEVILLE","State":"NC","Zip":28803,"lon":-70.3345,"lat":43.5902},{"STATE_ID":"05200_U0265717","PROP_LOC":"69 JASPER ST Scarborough Maine","Grantee":"TAYLOR, MARK JAMES","Co.Grantee":"","Mailing":"69 JASPER ST","City":"SCARBOROUGH","State":"ME","Zip":4074,"lon":-70.3662,"lat":43.5508},{"STATE_ID":"05200_U0265718","PROP_LOC":"71 JASPER ST Scarborough Maine","Grantee":"INGALLS, WAYNE R","Co.Grantee":"INGALLS, KYOKO","Mailing":"71 JASPER ST","City":"SCARBOROUGH","State":"ME","Zip":4074,"lon":-70.3661,"lat":43.551},{"STATE_ID":"05200_U0265719","PROP_LOC":"73 JASPER ST Scarborough Maine","Grantee":"WILLIAMS, JOHN L","Co.Grantee":"WILLIAMS, ELIZABETH E","Mailing":"73 JASPER ST","City":"SCARBOROUGH","State":"ME","Zip":4074,"lon":-70.3659,"lat":43.5512},{"STATE_ID":"05200_U0265720","PROP_LOC":"75 JASPER ST Scarborough Maine","Grantee":"HERLING FAMILY REVOCABLE TRUST","Co.Grantee":"HERLING, ALVIN M & STELLA C TTEES","Mailing":"13382 SE 86TH CIR","City":"SUMMERFIELD","State":"FL","Zip":34491,"lon":-70.3656,"lat":43.5513},{"STATE_ID":"05200_U0265721","PROP_LOC":"77 JASPER ST Scarborough Maine","Grantee":"UNASSIGNED","Co.Grantee":"","Mailing":"UNASSIGNED","City":"","State":"","lon":-70.3653,"lat":43.5515},{"STATE_ID":"05200_U0265722","PROP_LOC":"84 JASPER ST Scarborough Maine","Grantee":"TURNER, ERIC B","Co.Grantee":"TURNER, KRISTEN A","Mailing":"84 JASPER ST","City":"SCARBOROUGH","State":"ME","Zip":4074,"lon":-70.3667,"lat":43.5526},{"STATE_ID":"05200_U0265723","PROP_LOC":"82 JASPER ST Scarborough Maine","Grantee":"ROSS, CARLTON N LIVING TRUST","Co.Grantee":"ROSS, KATHLEEN A LIVING TRUST","Mailing":"82 JASPER ST","City":"SCARBOROUGH","State":"ME","Zip":4074,"lon":-70.3666,"lat":43.5524},{"STATE_ID":"05200_U0265724","PROP_LOC":"80 JASPER ST Scarborough Maine","Grantee":"KITCHEN, AARON","Co.Grantee":"KITCHEN, KARA","Mailing":"80 JASPER ST","City":"SCARBOROUGH","State":"ME","Zip":4074,"lon":-70.3664,"lat":43.5522},{"STATE_ID":"05200_U0265725","PROP_LOC":"76 JASPER ST Scarborough Maine","Grantee":"ST HILAIRE, NORMAN","Co.Grantee":"ST HILAIRE, JUDITH","Mailing":"69 JASPER ST","City":"SCARBOROUGH","State":"ME","Zip":4074,"lon":-70.3659,"lat":43.5518},{"STATE_ID":"05200_U0265726","PROP_LOC":"74 JASPER ST Scarborough Maine","Grantee":"LAQUALIA, STACEY","Co.Grantee":"","Mailing":"1 MARINERS CV","City":"SCARBOROUGH","State":"ME","Zip":4074,"lon":-70.3664,"lat":43.5515},{"STATE_ID":"05200_U0265727","PROP_LOC":"3 MARINERS CV Scarborough Maine","Grantee":"ENGSTROM, AUBREY G JR","Co.Grantee":"","Mailing":"3 MARINERS CV","City":"SCARBOROUGH","State":"ME","Zip":4074,"lon":-70.3667,"lat":43.552},{"STATE_ID":"05200_U0265728","PROP_LOC":"5 MARINERS CV Scarborough Maine","Grantee":"ENGSTROM, AUBREY G JR","Co.Grantee":"","Mailing":"3 MARINERS CV","City":"SCARBOROUGH","State":"ME","Zip":4074,"lon":-70.367,"lat":43.5522},{"STATE_ID":"05200_U0265729","PROP_LOC":"7 MARINERS CV Scarborough Maine","Grantee":"7 MARINERS COVE LLC","Co.Grantee":"","Mailing":"9 MARINERS CV","City":"SCARBOROUGH","State":"ME","Zip":4074,"lon":-70.3673,"lat":43.5524},{"STATE_ID":"05200_U0265730","PROP_LOC":"9 MARINERS CV Scarborough Maine","Grantee":"JACK, LAWRENCE C","Co.Grantee":"","Mailing":"9 MARINERS CV","City":"SCARBOROUGH","State":"ME","Zip":4074,"lon":-70.3676,"lat":43.5524},{"STATE_ID":"05200_U0265731","PROP_LOC":"11 MARINERS CV Scarborough Maine","Grantee":"VENEZUELA, MATTHEW B","Co.Grantee":"VENEZUELA, KATIE H","Mailing":"4417 MIMOSA DR","City":"MELISSA","State":"TX","Zip":75454,"lon":-70.3679,"lat":43.5523},{"STATE_ID":"05200_U0265732","PROP_LOC":"15 MARINERS CV Scarborough Maine","Grantee":"ASANZA, VINCENT U","Co.Grantee":"ASANZA, DIANA H","Mailing":"15 MARINERS CV","City":"SCARBOROUGH","State":"ME","Zip":4074,"lon":-70.3685,"lat":43.5523},{"STATE_ID":"05200_U0265733","PROP_LOC":"14 MARINERS CV Scarborough Maine","Grantee":"BAILEY, EVE","Co.Grantee":"KAMINSKI, SALLY","Mailing":"14 MARINERS CV","City":"SCARBOROUGH","State":"ME","Zip":4074,"lon":-70.3687,"lat":43.552},{"STATE_ID":"05200_U0265734","PROP_LOC":"12 MARINERS CV Scarborough Maine","Grantee":"SOPER, G MICHAEL","Co.Grantee":"SOPER, JACQUELINE A D","Mailing":"12 MARINERS CV","City":"SCARBOROUGH","State":"ME","Zip":4074,"lon":-70.3686,"lat":43.5518},{"STATE_ID":"05200_U0265735","PROP_LOC":"10 MARINERS CV Scarborough Maine","Grantee":"SANDLER, GARY M","Co.Grantee":"STONE, ERIN E","Mailing":"10 MARINERS CV","City":"SCARBOROUGH","State":"ME","Zip":4074,"lon":-70.3683,"lat":43.5516},{"STATE_ID":"05200_U0265736","PROP_LOC":"8 MARINERS CV Scarborough Maine","Grantee":"PARSHALL, JEFFREY J","Co.Grantee":"PARSHALL, SANDRA E","Mailing":"8 MARINERS CV","City":"SCARBOROUGH","State":"ME","Zip":4074,"lon":-70.3678,"lat":43.5516},{"STATE_ID":"05200_U0265737","PROP_LOC":"6 MARINERS CV Scarborough Maine","Grantee":"DICKEL, MICHAEL A","Co.Grantee":"DICKEL, KIM I","Mailing":"6 MARINERS CV","City":"SCARBOROUGH","State":"ME","Zip":4074,"lon":-70.3675,"lat":43.5517},{"STATE_ID":"05200_U0265738","PROP_LOC":"2 MARINERS CV Scarborough Maine","Grantee":"MICHAUD, PATRICK","Co.Grantee":"","Mailing":"PO BOX 531","City":"OLD ORCHARD BEACH","State":"ME","Zip":4064,"lon":-70.367,"lat":43.5511},{"STATE_ID":"05200_U0265740","PROP_LOC":" Scarborough Maine","Grantee":"EVANS, GRANT","Co.Grantee":"EVANS, CAROLYN J","Mailing":"70 JASPER ST","City":"SCARBOROUGH","State":"ME","Zip":4074,"lon":-70.3345,"lat":43.5902},{"STATE_ID":"05200_U0265741","PROP_LOC":" Scarborough Maine","Grantee":"DUQUETTE, BRIAN E","Co.Grantee":"DUQUETTE, ELAINA J","Mailing":"68 JASPER ST","City":"SCARBOROUGH","State":"ME","Zip":4074,"lon":-70.3345,"lat":43.5902},{"STATE_ID":"05200_U0265742","PROP_LOC":" Scarborough Maine","Grantee":"KUKENBERGER, MICHAEL R","Co.Grantee":"","Mailing":"66 JASPER ST","City":"SCARBOROUGH","State":"ME","Zip":4074,"lon":-70.3345,"lat":43.5902},{"STATE_ID":"05200_U0265743","PROP_LOC":" Scarborough Maine","Grantee":"UNASSIGNED","Co.Grantee":"","Mailing":"UNASSIGNED","City":"","State":"","lon":-70.3345,"lat":43.5902},{"STATE_ID":"05200_U0265744","PROP_LOC":" Scarborough Maine","Grantee":"LINDSTROM, JASON A","Co.Grantee":"LINDSTROM, MARY S","Mailing":"62 JASPER ST","City":"SCARBOROUGH","State":"ME","Zip":4074,"lon":-70.3345,"lat":43.5902},{"STATE_ID":"05200_U0265745","PROP_LOC":" Scarborough Maine","Grantee":"BUTURLIA, YURY N","Co.Grantee":"BUTURLIA, NATALLIA","Mailing":"60 JASPER ST","City":"SCARBOROUGH","State":"ME","Zip":4074,"lon":-70.3345,"lat":43.5902},{"STATE_ID":"05200_U0265746","PROP_LOC":" Scarborough Maine","Grantee":"ASHLEY ALEXANDRA HOLDINGS LLC","Co.Grantee":"","Mailing":"672 US ROUTE 1","City":"SCARBOROUGH","State":"ME","Zip":4074,"lon":-70.3345,"lat":43.5902},{"STATE_ID":"05200_U0265747","PROP_LOC":" Scarborough Maine","Grantee":"SURF CAP DEVELOPMENT LLC","Co.Grantee":"","Mailing":"672 US ROUTE 1","City":"SCARBOROUGH","State":"ME","Zip":4074,"lon":-70.3345,"lat":43.5902},{"STATE_ID":"05200_U0265748","PROP_LOC":" Scarborough Maine","Grantee":"BRIGHAM, THOMAS A","Co.Grantee":"BRIGHAM, PATRICIA G","Mailing":"54 JASPER ST","City":"SCARBOROUGH","State":"ME","Zip":4074,"lon":-70.3345,"lat":43.5902},{"STATE_ID":"05200_U0265749","PROP_LOC":" Scarborough Maine","Grantee":"DOWNS, LAURALEE ANN","Co.Grantee":"SARTOR, CELESTE ANNE","Mailing":"52 JASPER ST","City":"SCARBOROUGH","State":"ME","Zip":4074,"lon":-70.3345,"lat":43.5902},{"STATE_ID":"05200_U0265750","PROP_LOC":" Scarborough Maine","Grantee":"TIBBETTS, CHRISTOPHER P","Co.Grantee":"TIBBETTS, ALYSSA C","Mailing":"50 JASPER ST","City":"SCARBOROUGH","State":"ME","Zip":4074,"lon":-70.3345,"lat":43.5902},{"STATE_ID":"05200_U0265751","PROP_LOC":" Scarborough Maine","Grantee":"DAILY DOUBLE ENTERPRISES LLC","Co.Grantee":"","Mailing":"672 US ROUTE 1","City":"SCARBOROUGH","State":"ME","Zip":4074,"lon":-70.3345,"lat":43.5902},{"STATE_ID":"05200_U0265752","PROP_LOC":" Scarborough Maine","Grantee":"DAILY DOUBLE ENTERPRISES LLC","Co.Grantee":"","Mailing":"672 US ROUTE 1","City":"SCARBOROUGH","State":"ME","Zip":4074,"lon":-70.3345,"lat":43.5902},{"STATE_ID":"05200_U0265753","PROP_LOC":" Scarborough Maine","Grantee":"WHITTEN, FRANCIS III","Co.Grantee":"WHITTEN, SUSAN A","Mailing":"44 JASPER ST","City":"SCARBOROUGH","State":"ME","Zip":4074,"lon":-70.3345,"lat":43.5902},{"STATE_ID":"05200_U0265754","PROP_LOC":" Scarborough Maine","Grantee":"DAILY DOUBLE ENTERPRISES LLC","Co.Grantee":"","Mailing":"672 US ROUTE 1","City":"SCARBOROUGH","State":"ME","Zip":4074,"lon":-70.3345,"lat":43.5902},{"STATE_ID":"05200_U0265755","PROP_LOC":" Scarborough Maine","Grantee":"DAILY DOUBLE ENTERPRISES LLC","Co.Grantee":"","Mailing":"672 US ROUTE 1","City":"SCARBOROUGH","State":"ME","Zip":4074,"lon":-70.3345,"lat":43.5902},{"STATE_ID":"05200_U0265756","PROP_LOC":" Scarborough Maine","Grantee":"ODLIN, ROBERT M","Co.Grantee":"ODLIN, MARIA A","Mailing":"38 JASPER ST","City":"SCARBOROUGH","State":"ME","Zip":4074,"lon":-70.3345,"lat":43.5902},{"STATE_ID":"05200_U027001","PROP_LOC":"197 PINE POINT RD Scarborough Maine","Grantee":"BENNETT, GLENN D","Co.Grantee":"BENNETT, TERRY A","Mailing":"197 PINE POINT RD","City":"SCARBOROUGH","State":"ME","Zip":4074,"lon":-70.3622,"lat":43.555},{"STATE_ID":"05200_U027002","PROP_LOC":"193 PINE POINT RD Scarborough Maine","Grantee":"SHUPE, ALEXANDER J","Co.Grantee":"SHUPE, KARIN B","Mailing":"193 PINE POINT RD","City":"SCARBOROUGH","State":"ME","Zip":4074,"lon":-70.3628,"lat":43.5552},{"STATE_ID":"05200_U027003","PROP_LOC":"189 PINE POINT RD Scarborough Maine","Grantee":"JOHNSON, WILLIAM F","Co.Grantee":"JOHNSON, TAMMY L","Mailing":"189 PINE POINT RD","City":"SCARBOROUGH","State":"ME","Zip":4074,"lon":-70.3633,"lat":43.5554},{"STATE_ID":"05200_U027005","PROP_LOC":"183 PINE POINT RD Scarborough Maine","Grantee":"DOUGLAS, SCOTT","Co.Grantee":"","Mailing":"183 PINE POINT RD","City":"SCARBOROUGH","State":"ME","Zip":4074,"lon":-70.364,"lat":43.5557},{"STATE_ID":"05200_U027006","PROP_LOC":"181 PINE POINT RD Scarborough Maine","Grantee":"TYSON, AMANDA","Co.Grantee":"MCDAVITT, ANNA","Mailing":"181 PINE POINT RD","City":"SCARBOROUGH","State":"ME","Zip":4074,"lon":-70.3642,"lat":43.556},{"STATE_ID":"05200_U027008","PROP_LOC":"4 SYLVAN RD Scarborough Maine","Grantee":"BRACKETT, MERTON F","Co.Grantee":"","Mailing":"4 SYLVAN RD","City":"SCARBOROUGH","State":"ME","Zip":4074,"lon":-70.3647,"lat":43.5557},{"STATE_ID":"05200_U027010","PROP_LOC":"12 SYLVAN RD Scarborough Maine","Grantee":"RICE, RICHARD H","Co.Grantee":"","Mailing":"12 SYLVAN RD","City":"SCARBOROUGH","State":"ME","Zip":4074,"lon":-70.3656,"lat":43.5549},{"STATE_ID":"05200_U027011","PROP_LOC":"16 SYLVAN RD Scarborough Maine","Grantee":"LYTWYN, MICHAEL W","Co.Grantee":"LYTWYN, BEVERLY J","Mailing":"16 SYLVAN RD","City":"SCARBOROUGH","State":"ME","Zip":4074,"lon":-70.3661,"lat":43.5544},{"STATE_ID":"05200_U027012","PROP_LOC":"18 SYLVAN RD Scarborough Maine","Grantee":"CORROW, JAMES & ELAINE","Co.Grantee":"","Mailing":"18 SYLVAN RD","City":"SCARBOROUGH","State":"ME","Zip":4074,"lon":-70.3666,"lat":43.5541},{"STATE_ID":"05200_U027013","PROP_LOC":"20 SYLVAN RD Scarborough Maine","Grantee":"HACKETT, B JEANNE","Co.Grantee":"TOOHEY, PAUL B","Mailing":"20 SYLVAN RD","City":"SCARBOROUGH","State":"ME","Zip":4074,"lon":-70.367,"lat":43.5539},{"STATE_ID":"05200_U027014","PROP_LOC":"22 SYLVAN RD Scarborough Maine","Grantee":"ROY, JAMES A","Co.Grantee":"ROY, MICHELLE D","Mailing":"22 SYLVAN RD","City":"SCARBOROUGH","State":"ME","Zip":4074,"lon":-70.3677,"lat":43.554},{"STATE_ID":"05200_U027015","PROP_LOC":"24 SYLVAN RD Scarborough Maine","Grantee":"RIOUX, JONATHAN G","Co.Grantee":"RIOUX, MEGAN A","Mailing":"24 SYLVAN RD","City":"SCARBOROUGH","State":"ME","Zip":4074,"lon":-70.3679,"lat":43.5542},{"STATE_ID":"05200_U027016","PROP_LOC":"19 SYLVAN RD Scarborough Maine","Grantee":"KING, TIMOTHY M","Co.Grantee":"KING, MICHELLE L","Mailing":"19 SYLVAN RD","City":"SCARBOROUGH","State":"ME","Zip":4074,"lon":-70.3671,"lat":43.5544},{"STATE_ID":"05200_U027017","PROP_LOC":"15 SYLVAN RD Scarborough Maine","Grantee":"CASHMAN, BRIAN A","Co.Grantee":"CASHMAN, TEREASA J","Mailing":"15 SYLVAN RD","City":"SCARBOROUGH","State":"ME","Zip":4074,"lon":-70.3667,"lat":43.5548},{"STATE_ID":"05200_U027018","PROP_LOC":"11 SYLVAN RD Scarborough Maine","Grantee":"TOMPKINS, TOWLE R","Co.Grantee":"KNIGHT, FELICIA K","Mailing":"11 SYLVAN RD","City":"SCARBOROUGH","State":"ME","Zip":4074,"lon":-70.3662,"lat":43.5551},{"STATE_ID":"05200_U027018A","PROP_LOC":"9 SYLVAN RD Scarborough Maine","Grantee":"RENDALL, SALLY M","Co.Grantee":"","Mailing":"9 SYLVAN RD","City":"SCARBOROUGH","State":"ME","Zip":4074,"lon":-70.366,"lat":43.5553},{"STATE_ID":"05200_U027019","PROP_LOC":"5 SYLVAN RD Scarborough Maine","Grantee":"BRACKETT, MERTON F","Co.Grantee":"","Mailing":"4 SYLVAN RD","City":"SCARBOROUGH","State":"ME","Zip":4074,"lon":-70.3655,"lat":43.5558},{"STATE_ID":"05200_U027020","PROP_LOC":"177 PINE POINT RD Scarborough Maine","Grantee":"LLM LLC","Co.Grantee":"","Mailing":"17 MARTIN AV","City":"SCARBOROUGH","State":"ME","Zip":4074,"lon":-70.3649,"lat":43.5563},{"STATE_ID":"05200_U027021","PROP_LOC":"175 PINE POINT RD Scarborough Maine","Grantee":"MINERVINO, ROCCO","Co.Grantee":"","Mailing":"175 PINE POINT RD","City":"SCARBOROUGH","State":"ME","Zip":4074,"lon":-70.3652,"lat":43.5565},{"STATE_ID":"05200_U027022","PROP_LOC":"2 HILLSIDE AVE Scarborough Maine","Grantee":"MORIN, NORMAN P & JANE M","Co.Grantee":"","Mailing":"2 HILLSIDE AVE","City":"SCARBOROUGH","State":"ME","Zip":4074,"lon":-70.3655,"lat":43.5566},{"STATE_ID":"05200_U027023","PROP_LOC":"4 HILLSIDE AVE Scarborough Maine","Grantee":"ERDMAN, ERIC A","Co.Grantee":"","Mailing":"4 HILLSIDE AVE","City":"SCARBOROUGH","State":"ME","Zip":4074,"lon":-70.3658,"lat":43.5563},{"STATE_ID":"05200_U027024","PROP_LOC":"6 HILLSIDE AVE Scarborough Maine","Grantee":"CHEN, ENCHI","Co.Grantee":"YIN, LINGXIA","Mailing":"6 HILLSIDE AVE","City":"SCARBOROUGH","State":"ME","Zip":4074,"lon":-70.366,"lat":43.5561},{"STATE_ID":"05200_U027025","PROP_LOC":"8 HILLSIDE AVE Scarborough Maine","Grantee":"BECKERLEY, SUZANNE U TRUSTEE","Co.Grantee":"BECKERLEY, SUZANNE U REVOCABLE TRUST","Mailing":"8 HILLSIDE AVE","City":"SCARBOROUGH","State":"ME","Zip":4074,"lon":-70.3663,"lat":43.5559},{"STATE_ID":"05200_U027026","PROP_LOC":"10 HILLSIDE AVE Scarborough Maine","Grantee":"JORGENSEN, KYLE P","Co.Grantee":"JORGENSEN, CASEY S","Mailing":"10 HILLSIDE AVE","City":"SCARBOROUGH","State":"ME","Zip":4074,"lon":-70.3665,"lat":43.5557},{"STATE_ID":"05200_U027027","PROP_LOC":"14 HILLSIDE AVE Scarborough Maine","Grantee":"MANCINI, PHILIP & COLLEEN","Co.Grantee":"","Mailing":"14 HILLSIDE AVE","City":"SCARBOROUGH","State":"ME","Zip":4074,"lon":-70.3669,"lat":43.5553},{"STATE_ID":"05200_U027028","PROP_LOC":"16 HILLSIDE AVE Scarborough Maine","Grantee":"GLENDINNING, CHRISTIAN O","Co.Grantee":"GLENDINNING, JESSICA L","Mailing":"16 HILLSIDE AVE","City":"SCARBOROUGH","State":"ME","Zip":4074,"lon":-70.3672,"lat":43.5551},{"STATE_ID":"05200_U027029","PROP_LOC":"18 HILLSIDE AVE Scarborough Maine","Grantee":"SLIWINSKI, DANIEL T","Co.Grantee":"BOTELHO, ANNE M","Mailing":"18 HILLSIDE AVE","City":"SCARBOROUGH","State":"ME","Zip":4074,"lon":-70.3674,"lat":43.5549},{"STATE_ID":"05200_U027030","PROP_LOC":"23 SYLVAN RD Scarborough Maine","Grantee":"JOHNSON, JAMES A","Co.Grantee":"NIKI, METCALF","Mailing":"23 SYLVAN RD","City":"SCARBOROUGH","State":"ME","Zip":4074,"lon":-70.3676,"lat":43.5546},{"STATE_ID":"05200_U027034","PROP_LOC":"21 HILLSIDE AVE Scarborough Maine","Grantee":"HUTCHINSON, CHRISTOPHER G","Co.Grantee":"HUTCHINSON, KATHERINE R","Mailing":"21 HILLSIDE AVE","City":"SCARBOROUGH","State":"ME","Zip":4074,"lon":-70.3683,"lat":43.5549},{"STATE_ID":"05200_U027035","PROP_LOC":"19 HILLSIDE AVE Scarborough Maine","Grantee":"WEYMOUTH, PETER A & KAREN L","Co.Grantee":"","Mailing":"19 HILLSIDE AVE","City":"SCARBOROUGH","State":"ME","Zip":4074,"lon":-70.3678,"lat":43.5552},{"STATE_ID":"05200_U027036","PROP_LOC":"17 HILLSIDE AVE Scarborough Maine","Grantee":"HENDRIX, RALPH JR & ANNE","Co.Grantee":"","Mailing":"17 HILLSIDE AVE","City":"SCARBOROUGH","State":"ME","Zip":4074,"lon":-70.3676,"lat":43.5554},{"STATE_ID":"05200_U027037","PROP_LOC":"15 HILLSIDE AVE Scarborough Maine","Grantee":"REED, GLEN R & DEBORAH E","Co.Grantee":"","Mailing":"15 HILLSIDE AVE","City":"SCARBOROUGH","State":"ME","Zip":4074,"lon":-70.3674,"lat":43.5557},{"STATE_ID":"05200_U027038","PROP_LOC":"4 STORER ST Scarborough Maine","Grantee":"BACHMANN, BRIAN","Co.Grantee":"BACHMANN, MARGARET M","Mailing":"4 STORER ST","City":"SCARBOROUGH","State":"ME","Zip":4074,"lon":-70.3676,"lat":43.5558},{"STATE_ID":"05200_U027051","PROP_LOC":"8 STORER ST Scarborough Maine","Grantee":"CARGEN, DAVID JOHN","Co.Grantee":"CARGEN, CHELSEY ELIZABETH","Mailing":"8 STORER ST","City":"SCARBOROUGH","State":"ME","Zip":4074,"lon":-70.3681,"lat":43.556},{"STATE_ID":"05200_U027052","PROP_LOC":"10 STORER ST Scarborough Maine","Grantee":"BEELER, PAUL C & GLORIA M","Co.Grantee":"","Mailing":"10 STORER ST","City":"SCARBOROUGH","State":"ME","Zip":4074,"lon":-70.3684,"lat":43.5562},{"STATE_ID":"05200_U027061","PROP_LOC":"3 STORER ST Scarborough Maine","Grantee":"BLACKINGTON, ARTHUR W","Co.Grantee":"BLACKINGTON, ROBERTA J","Mailing":"3 STORER ST","City":"SCARBOROUGH","State":"ME","Zip":4074,"lon":-70.3672,"lat":43.5561},{"STATE_ID":"05200_U027062","PROP_LOC":"11 HILLSIDE AVE Scarborough Maine","Grantee":"HENDRIX, THERESA M","Co.Grantee":"","Mailing":"11 HILLSIDE AVE","City":"SCARBOROUGH","State":"ME","Zip":4074,"lon":-70.367,"lat":43.5559},{"STATE_ID":"05200_U027063","PROP_LOC":"9 HILLSIDE AVE Scarborough Maine","Grantee":"GEAUMONT, ARTHUR & GLORIA M","Co.Grantee":"","Mailing":"9 HILLSIDE AVE","City":"SCARBOROUGH","State":"ME","Zip":4074,"lon":-70.3667,"lat":43.5561},{"STATE_ID":"05200_U027064","PROP_LOC":"7 HILLSIDE AVE Scarborough Maine","Grantee":"JOHNSON, JANE M","Co.Grantee":"JOHNSON, CHARLES C","Mailing":"7 HILLSIDE AVE","City":"SCARBOROUGH","State":"ME","Zip":4074,"lon":-70.3665,"lat":43.5563},{"STATE_ID":"05200_U027069","PROP_LOC":"9 KENNEDY DR Scarborough Maine","Grantee":"NYGREN, CYNTHIA L","Co.Grantee":"","Mailing":"30 PINE LEDGE DR","City":"SCARBOROUGH","State":"ME","Zip":4074,"lon":-70.3678,"lat":43.5569},{"STATE_ID":"05200_U027070","PROP_LOC":"7 KENNEDY DR Scarborough Maine","Grantee":"BENNETT, STEPHEN P","Co.Grantee":"","Mailing":"7 KENNEDY DR","City":"SCARBOROUGH","State":"ME","Zip":4074,"lon":-70.3671,"lat":43.5569},{"STATE_ID":"05200_U027072","PROP_LOC":"3 KENNEDY DR Scarborough Maine","Grantee":"WICARIUS, LOUISE A MAINE TRUST","Co.Grantee":"","Mailing":"711 SECOND ST","City":"CORONADO","State":"CA","Zip":92118,"lon":-70.3664,"lat":43.5568},{"STATE_ID":"05200_U027073","PROP_LOC":"3 HILLSIDE AVE Scarborough Maine","Grantee":"BELLEVUE, BARBARA L","Co.Grantee":"","Mailing":"3 HILLSIDE AVE","City":"SCARBOROUGH","State":"ME","Zip":4074,"lon":-70.3661,"lat":43.5566},{"STATE_ID":"05200_U027074","PROP_LOC":"1 HILLSIDE AVE Scarborough Maine","Grantee":"KANE, ABIGAILE","Co.Grantee":"","Mailing":"1 HILLSIDE AVE","City":"SCARBOROUGH","State":"ME","Zip":4074,"lon":-70.3659,"lat":43.5569},{"STATE_ID":"05200_U027076","PROP_LOC":"155 OLD BLUE POINT RD Scarborough Maine","Grantee":"PURVIS, SHAWN DAVID","Co.Grantee":"","Mailing":"155 OLD BLUE POINT RD","City":"SCARBOROUGH","State":"ME","Zip":4074,"lon":-70.3665,"lat":43.5571},{"STATE_ID":"05200_U027077","PROP_LOC":"153 OLD BLUE POINT RD Scarborough Maine","Grantee":"LAMBERT, DANIEL & DENISE","Co.Grantee":"","Mailing":"153 OLD BLUE POINT RD","City":"SCARBOROUGH","State":"ME","Zip":4074,"lon":-70.3669,"lat":43.5572},{"STATE_ID":"05200_U027078","PROP_LOC":"151 OLD BLUE POINT RD Scarborough Maine","Grantee":"QUIRK PROPERTIES & MANAGEMENT LLC","Co.Grantee":"","Mailing":"123 OLD BLUE POINT RD","City":"SCARBOROUGH","State":"ME","Zip":4074,"lon":-70.3673,"lat":43.5572},{"STATE_ID":"05200_U027079","PROP_LOC":"149 OLD BLUE POINT RD Scarborough Maine","Grantee":"MICHAUD, THOMAS R","Co.Grantee":"","Mailing":"149 OLD BLUE POINT RD","City":"SCARBOROUGH","State":"ME","Zip":4074,"lon":-70.3677,"lat":43.5572},{"STATE_ID":"05200_U027080","PROP_LOC":"147 OLD BLUE POINT RD Scarborough Maine","Grantee":"LIBBY, RYAN M","Co.Grantee":"","Mailing":"147 OLD BLUE POINT RD","City":"SCARBOROUGH","State":"ME","Zip":4074,"lon":-70.3681,"lat":43.5571},{"STATE_ID":"05200_U027081","PROP_LOC":"145 OLD BLUE POINT RD Scarborough Maine","Grantee":"GRANATA, DARYEN J","Co.Grantee":"","Mailing":"PO BOX 2315","City":"SCARBOROUGH","State":"ME","Zip":4070,"lon":-70.3684,"lat":43.557},{"STATE_ID":"05200_U027086","PROP_LOC":"141 OLD BLUE POINT RD Scarborough Maine","Grantee":"MALAYEV, ANDREY","Co.Grantee":"MALAYEV, IRINA","Mailing":"141 OLD BLUE POINT RD","City":"SCARBOROUGH","State":"ME","Zip":4074,"lon":-70.3689,"lat":43.5568},{"STATE_ID":"05200_U027087","PROP_LOC":"139 OLD BLUE POINT RD Scarborough Maine","Grantee":"LIBBY, NORMAN E & ANN M","Co.Grantee":"","Mailing":"139 OLD BLUE POINT RD","City":"SCARBOROUGH","State":"ME","Zip":4074,"lon":-70.3692,"lat":43.5566},{"STATE_ID":"05200_U027088","PROP_LOC":"137 OLD BLUE POINT RD Scarborough Maine","Grantee":"MCHUGH, WILLIAM F JR","Co.Grantee":"MCHUGH, CHERYL L","Mailing":"137 OLD BLUE POINT RD","City":"SCARBOROUGH","State":"ME","Zip":4074,"lon":-70.3694,"lat":43.5564},{"STATE_ID":"05200_U027089","PROP_LOC":"135 OLD BLUE POINT RD Scarborough Maine","Grantee":"STONE, JAMES R & RONDA H","Co.Grantee":"","Mailing":"135 OLD BLUE POINT RD","City":"SCARBOROUGH","State":"ME","Zip":4074,"lon":-70.3699,"lat":43.5563},{"STATE_ID":"05200_U027401","PROP_LOC":"1 WINDSOR PINES DR Scarborough Maine","Grantee":"MARTIN, LONNY L","Co.Grantee":"","Mailing":"1 WINDSOR PINES DR","City":"SCARBOROUGH","State":"ME","Zip":4074,"lon":-70.3708,"lat":43.5559},{"STATE_ID":"05200_U027402","PROP_LOC":"3 WINDSOR PINES DR Scarborough Maine","Grantee":"OHALLORAN, JUDITH A REVOCABLE TRUST","Co.Grantee":"OHALLORAN, JUDITH A TRUSTEE","Mailing":"3 WINDSOR PINES DR","City":"SCARBOROUGH","State":"ME","Zip":4074,"lon":-70.3708,"lat":43.5556},{"STATE_ID":"05200_U027403","PROP_LOC":"5 WINDSOR PINES DR Scarborough Maine","Grantee":"ALOFS, DAVID B & CARLENE E","Co.Grantee":"","Mailing":"5 WINDSOR PINES DR","City":"SCARBOROUGH","State":"ME","Zip":4074,"lon":-70.3707,"lat":43.5553},{"STATE_ID":"05200_U027404","PROP_LOC":"7 WINDSOR PINES DR Scarborough Maine","Grantee":"HOWARD, FREDERICK & MICHELE","Co.Grantee":"","Mailing":"7 WINDSOR PINES DR","City":"SCARBOROUGH","State":"ME","Zip":4074,"lon":-70.3705,"lat":43.555},{"STATE_ID":"05200_U027405","PROP_LOC":"9 WINDSOR PINES DR Scarborough Maine","Grantee":"SMITH, WINTHROP & ALLISON","Co.Grantee":"","Mailing":"9 WINDSOR PINES DR","City":"SCARBOROUGH","State":"ME","Zip":4074,"lon":-70.3704,"lat":43.5547},{"STATE_ID":"05200_U027406","PROP_LOC":"11 WINDSOR PINES DR Scarborough Maine","Grantee":"BROWN, JESSICA M","Co.Grantee":"BROWN, SCOTT M","Mailing":"11 WINDSOR PINES DR","City":"SCARBOROUGH","State":"ME","Zip":4074,"lon":-70.3704,"lat":43.5544},{"STATE_ID":"05200_U027415","PROP_LOC":"31 WINDSOR PINES DR Scarborough Maine","Grantee":"MACK, MICHAEL & DIANE M","Co.Grantee":"","Mailing":"31 WINDSOR PINES DR","City":"SCARBOROUGH","State":"ME","Zip":4074,"lon":-70.3686,"lat":43.553},{"STATE_ID":"05200_U027416","PROP_LOC":"3 PINE LEDGE DR Scarborough Maine","Grantee":"LONSDALE, GORDON","Co.Grantee":"","Mailing":"3 PINE LEDGE DR","City":"SCARBOROUGH","State":"ME","Zip":4074,"lon":-70.3691,"lat":43.5536},{"STATE_ID":"05200_U027423","PROP_LOC":"12 WINDSOR PINES DR Scarborough Maine","Grantee":"FRAZIER, ROBERT G & HELEN M","Co.Grantee":"","Mailing":"12 WINDSOR PINES DR","City":"SCARBOROUGH","State":"ME","Zip":4074,"lon":-70.3698,"lat":43.554},{"STATE_ID":"05200_U027424","PROP_LOC":"1 PINE LEDGE DR Scarborough Maine","Grantee":"ERB, DAVID A & NANCY M","Co.Grantee":"","Mailing":"1 PINE LEDGE DR","City":"SCARBOROUGH","State":"ME","Zip":4074,"lon":-70.3692,"lat":43.5539},{"STATE_ID":"05200_U027425","PROP_LOC":"4 TUDOR LN Scarborough Maine","Grantee":"TYSON, PETER B & THERESE M","Co.Grantee":"","Mailing":"4 TUDOR LN","City":"SCARBOROUGH","State":"ME","Zip":4074,"lon":-70.3693,"lat":43.5546},{"STATE_ID":"05200_U027426","PROP_LOC":"10 WINDSOR PINES DR Scarborough Maine","Grantee":"WOESSNER, SHAWN P","Co.Grantee":"","Mailing":"10 WINDSOR PINES DR","City":"SCARBOROUGH","State":"ME","Zip":4074,"lon":-70.3697,"lat":43.5546},{"STATE_ID":"05200_U027427","PROP_LOC":"1 TANGLEWOOD CIR Scarborough Maine","Grantee":"VOGEL, FREDERICK G III","Co.Grantee":"VOGEL, BRENDA D","Mailing":"1 TANGLEWOOD CIR","City":"SCARBOROUGH","State":"ME","Zip":4074,"lon":-70.3698,"lat":43.5551},{"STATE_ID":"05200_U027428","PROP_LOC":"2 TANGLEWOOD CIR Scarborough Maine","Grantee":"HEYL, BARBARA ANNE","Co.Grantee":"","Mailing":"2 TANGLEWOOD CIR","City":"SCARBOROUGH","State":"ME","Zip":4074,"lon":-70.3693,"lat":43.5557},{"STATE_ID":"05200_U027429","PROP_LOC":"4 TANGLEWOOD CIR Scarborough Maine","Grantee":"PHETTEPLACE, GAIL","Co.Grantee":"PHETTEPLACE, ERIC","Mailing":"4 TANGLEWOOD CIR","City":"SCARBOROUGH","State":"ME","Zip":4074,"lon":-70.3688,"lat":43.5559},{"STATE_ID":"05200_U027430","PROP_LOC":"6 TANGLEWOOD CIR Scarborough Maine","Grantee":"ROBERTS, KENNETH & LINDA","Co.Grantee":"","Mailing":"6 TANGLEWOOD CIR","City":"SCARBOROUGH","State":"ME","Zip":4074,"lon":-70.3683,"lat":43.5556},{"STATE_ID":"05200_U027431","PROP_LOC":"5 TANGLEWOOD CIR Scarborough Maine","Grantee":"MCCAFFREY, BERNARD F","Co.Grantee":"MCCAFFREY, CHRISTINE E","Mailing":"5 TANGLEWOOD CIR","City":"SCARBOROUGH","State":"ME","Zip":4074,"lon":-70.3683,"lat":43.5553},{"STATE_ID":"05200_U027432","PROP_LOC":"3 TANGLEWOOD CIR Scarborough Maine","Grantee":"BAZINET, STEVEN J","Co.Grantee":"BAZINET, LISA","Mailing":"3 TANGLEWOOD CIR","City":"SCARBOROUGH","State":"ME","Zip":4074,"lon":-70.3688,"lat":43.555},{"STATE_ID":"05200_U027433","PROP_LOC":"6 TUDOR LN Scarborough Maine","Grantee":"WINSLOW, AMY LYNN","Co.Grantee":"","Mailing":"6 TUDOR LN","City":"SCARBOROUGH","State":"ME","Zip":4074,"lon":-70.3687,"lat":43.5545},{"STATE_ID":"05200_U027434","PROP_LOC":"2 PINE LEDGE DR Scarborough Maine","Grantee":"SMITH, BRIAN T","Co.Grantee":"SMITH, ANNGELA G","Mailing":"2 PINE LEDGE DR","City":"SCARBOROUGH","State":"ME","Zip":4074,"lon":-70.3686,"lat":43.554},{"STATE_ID":"05200_U027435","PROP_LOC":"4 PINE LEDGE DR Scarborough Maine","Grantee":"DEBERADINIS, JOHN A","Co.Grantee":"DEBERADINIS, MELODYE K","Mailing":"4 PINE LEDGE DR","City":"SCARBOROUGH","State":"ME","Zip":4074,"lon":-70.3684,"lat":43.5537},{"STATE_ID":"05200_U027436","PROP_LOC":"8 PINE LEDGE DR Scarborough Maine","Grantee":"HOWES, NATHAN L","Co.Grantee":"HOWES, SARA B","Mailing":"8 PINE LEDGE DR","City":"SCARBOROUGH","State":"ME","Zip":4074,"lon":-70.368,"lat":43.5535},{"STATE_ID":"05200_U027437","PROP_LOC":"10 PINE LEDGE DR Scarborough Maine","Grantee":"MALONEY, BRIAN P","Co.Grantee":"HANUSOVSKY, SANDRA A","Mailing":"10 PINE LEDGE DR","City":"SCARBOROUGH","State":"ME","Zip":4074,"lon":-70.3675,"lat":43.5534},{"STATE_ID":"05200_U027438","PROP_LOC":"14 PINE LEDGE DR Scarborough Maine","Grantee":"SIMSON, KATHERINE A","Co.Grantee":"","Mailing":"14 PINE LEDGE DR","City":"SCARBOROUGH","State":"ME","Zip":4074,"lon":-70.367,"lat":43.5534},{"STATE_ID":"05200_U027439","PROP_LOC":"16 PINE LEDGE DR Scarborough Maine","Grantee":"KANE, DAVID M & PAULA M","Co.Grantee":"","Mailing":"16 PINE LEDGE DR","City":"SCARBOROUGH","State":"ME","Zip":4074,"lon":-70.3665,"lat":43.5535},{"STATE_ID":"05200_U027440","PROP_LOC":"18 PINE LEDGE DR Scarborough Maine","Grantee":"ZIDOW, ROBERT M JR","Co.Grantee":"ZIDOW, ANITA E","Mailing":"18 PINE LEDGE DR","City":"SCARBOROUGH","State":"ME","Zip":4074,"lon":-70.3662,"lat":43.5536},{"STATE_ID":"05200_U027441","PROP_LOC":"20 PINE LEDGE DR Scarborough Maine","Grantee":"MONACELLI, TIGE","Co.Grantee":"","Mailing":"20 PINE LEDGE DR","City":"SCARBOROUGH","State":"ME","Zip":4074,"lon":-70.3657,"lat":43.5537},{"STATE_ID":"05200_U027442","PROP_LOC":"24 PINE LEDGE DR Scarborough Maine","Grantee":"STERLING, JAMES M","Co.Grantee":"STERLING, DIANA M","Mailing":"24 PINE LEDGE DR","City":"SCARBOROUGH","State":"ME","Zip":4074,"lon":-70.3652,"lat":43.5538},{"STATE_ID":"05200_U027443","PROP_LOC":"26 PINE LEDGE DR Scarborough Maine","Grantee":"MARSHALL, ALEXANDER F","Co.Grantee":"MARSHALL, ELIZABETH HOYT","Mailing":"26 PINE LEDGE DR","City":"SCARBOROUGH","State":"ME","Zip":4074,"lon":-70.3649,"lat":43.554},{"STATE_ID":"05200_U027444","PROP_LOC":"28 PINE LEDGE DR Scarborough Maine","Grantee":"FUNK, STEVEN G & CAROL H","Co.Grantee":"","Mailing":"28 PINE LEDGE DR","City":"SCARBOROUGH","State":"ME","Zip":4074,"lon":-70.3646,"lat":43.5542},{"STATE_ID":"05200_U027445","PROP_LOC":"30 PINE LEDGE DR Scarborough Maine","Grantee":"NYGREN, JAMES H","Co.Grantee":"NYGREN, CYNTHIA L","Mailing":"30 PINE LEDGE DR","City":"SCARBOROUGH","State":"ME","Zip":4074,"lon":-70.3643,"lat":43.5544},{"STATE_ID":"05200_U027446","PROP_LOC":"34 PINE LEDGE DR Scarborough Maine","Grantee":"BRACKETT, JEFFREY A","Co.Grantee":"","Mailing":"34 PINE LEDGE DR","City":"SCARBOROUGH","State":"ME","Zip":4074,"lon":-70.3643,"lat":43.5547},{"STATE_ID":"05200_U027448","PROP_LOC":"35 PINE LEDGE DR Scarborough Maine","Grantee":"PIERCE, GRAHAM T","Co.Grantee":"PIERCE, JUDITH H","Mailing":"35 PINE LEDGE DR","City":"SCARBOROUGH","State":"ME","Zip":4074,"lon":-70.3635,"lat":43.555},{"STATE_ID":"05200_U027449","PROP_LOC":"33 PINE LEDGE DR Scarborough Maine","Grantee":"BOSSE, MICHAEL R","Co.Grantee":"DONATELLI, LUANA","Mailing":"33 PINE LEDGE DR","City":"SCARBOROUGH","State":"MA","Zip":4074,"lon":-70.3636,"lat":43.5547},{"STATE_ID":"05200_U027450","PROP_LOC":"31 PINE LEDGE DR Scarborough Maine","Grantee":"SNOWDEN, SUSAN B","Co.Grantee":"","Mailing":"31 PINE LEDGE DR","City":"SCARBOROUGH","State":"ME","Zip":4074,"lon":-70.3636,"lat":43.5544},{"STATE_ID":"05200_U027451","PROP_LOC":"29 PINE LEDGE DR Scarborough Maine","Grantee":"CANNON, PATRICK B","Co.Grantee":"SCHULER-CANNON, STACEY","Mailing":"29 PINE LEDGE DR","City":"SCARBOROUGH","State":"ME","Zip":4074,"lon":-70.3637,"lat":43.5541},{"STATE_ID":"05200_U027452","PROP_LOC":"27 PINE LEDGE DR Scarborough Maine","Grantee":"ANGELL, SYLVIE C","Co.Grantee":"","Mailing":"27 PINE LEDGE DR","City":"SCARBOROUGH","State":"ME","Zip":4074,"lon":-70.3639,"lat":43.5538},{"STATE_ID":"05200_U027453","PROP_LOC":"25 PINE LEDGE DR Scarborough Maine","Grantee":"CHARETTE, JEFFREY J","Co.Grantee":"CHARETTE, CHRISTINA","Mailing":"25 PINE LEDGE DR","City":"SCARBOROUGH","State":"ME","Zip":4074,"lon":-70.3642,"lat":43.5536},{"STATE_ID":"05200_U027454","PROP_LOC":"23 PINE LEDGE DR Scarborough Maine","Grantee":"CYR, PETER J","Co.Grantee":"OLEARY, HEATHER J","Mailing":"23 PINE LEDGE DR","City":"SCARBOROUGH","State":"ME","Zip":4074,"lon":-70.3646,"lat":43.5534},{"STATE_ID":"05200_U027455","PROP_LOC":"21 PINE LEDGE DR Scarborough Maine","Grantee":"TEACHOUT-SAXBY, DONNA P","Co.Grantee":"TEACHOUT, ROGER S II","Mailing":"21 PINE LEDGE DR","City":"SCARBOROUGH","State":"ME","Zip":4074,"lon":-70.3651,"lat":43.5533},{"STATE_ID":"05200_U027456","PROP_LOC":"19 PINE LEDGE DR Scarborough Maine","Grantee":"LACKEY, WILLIAM D","Co.Grantee":"LACKEY, ANN M","Mailing":"19 PINE LEDGE DR","City":"SCARBOROUGH","State":"ME","Zip":4074,"lon":-70.3657,"lat":43.5532},{"STATE_ID":"05200_U027457","PROP_LOC":"17 PINE LEDGE DR Scarborough Maine","Grantee":"PENLEY, WILLIAM E","Co.Grantee":"PENLEY, PATRICIA M","Mailing":"17 PINE LEDGE DR","City":"SCARBOROUGH","State":"ME","Zip":4074,"lon":-70.3661,"lat":43.5531},{"STATE_ID":"05200_U027458","PROP_LOC":"15 PINE LEDGE DR Scarborough Maine","Grantee":"CALVERT, GEORGE E","Co.Grantee":"DOWD, MARY AUSTIN","Mailing":"15 PINE LEDGE DR","City":"SCARBOROUGH","State":"ME","Zip":4074,"lon":-70.3669,"lat":43.553},{"STATE_ID":"05200_U027459","PROP_LOC":"11 PINE LEDGE DR Scarborough Maine","Grantee":"ESCHNER, THOMAS R & MARIE G","Co.Grantee":"","Mailing":"11 PINE LEDGE DR","City":"SCARBOROUGH","State":"ME","Zip":4074,"lon":-70.3673,"lat":43.5529},{"STATE_ID":"05200_U027460","PROP_LOC":"9 PINE LEDGE DR Scarborough Maine","Grantee":"KARBEL, BRIAN D","Co.Grantee":"KARBEL, KATHERINE W","Mailing":"9 PINE LEDGE DR","City":"SCARBOROUGH","State":"ME","Zip":4074,"lon":-70.3678,"lat":43.5529},{"STATE_ID":"05200_U027461","PROP_LOC":"7 PINE LEDGE DR Scarborough Maine","Grantee":"HAUSER, DAVID W","Co.Grantee":"COUTURE, LISA A","Mailing":"7 PINE LEDGE DR","City":"SCARBOROUGH","State":"ME","Zip":4074,"lon":-70.3682,"lat":43.5529},{"STATE_ID":"05200_U028001","PROP_LOC":"20 EAGLES NEST DR Scarborough Maine","Grantee":"SANTERRE, EMERY JR & MARY","Co.Grantee":"","Mailing":"20 EAGLES NEST DR","City":"SCARBOROUGH","State":"ME","Zip":4074,"lon":-70.3628,"lat":43.559},{"STATE_ID":"05200_U028001A","PROP_LOC":"170 PINE POINT RD Scarborough Maine","Grantee":"MCKAY, PHILIP P","Co.Grantee":"MCKAY, KATHLEEN M","Mailing":"170 PINE POINT RD","City":"SCARBOROUGH","State":"ME","Zip":4074,"lon":-70.3658,"lat":43.5575},{"STATE_ID":"05200_U028001B","PROP_LOC":"168 PINE POINT RD Scarborough Maine","Grantee":"BARNARD, CHRISTINA MARY","Co.Grantee":"","Mailing":"168 PINE POINT RD","City":"SCARBOROUGH","State":"ME","Zip":4074,"lon":-70.3663,"lat":43.558},{"STATE_ID":"05200_U028001C","PROP_LOC":"166 PINE POINT RD Scarborough Maine","Grantee":"FITZPATRICK, KEVIN","Co.Grantee":"FITZPATRICK, SHANNA","Mailing":"166 PINE POINT RD","City":"SCARBOROUGH","State":"ME","Zip":4074,"lon":-70.3667,"lat":43.5584},{"STATE_ID":"05200_U028002","PROP_LOC":"174 PINE POINT RD Scarborough Maine","Grantee":"SCARBOROUGH, TOWN OF","Co.Grantee":"","Mailing":"174  PINE POINT RD","City":"SCARBOROUGH","State":"ME","Zip":4074,"lon":-70.3647,"lat":43.5579},{"STATE_ID":"05200_U028003","PROP_LOC":"176 PINE POINT RD Scarborough Maine","Grantee":"BRANN, JUDY A","Co.Grantee":"","Mailing":"176 PINE POINT RD","City":"SCARBOROUGH","State":"ME","Zip":4074,"lon":-70.3646,"lat":43.5568},{"STATE_ID":"05200_U028004","PROP_LOC":"12 EAGLES NEST DR Scarborough Maine","Grantee":"BODAH, ZACHARY W","Co.Grantee":"BODAH, BRIANNE L","Mailing":"12 EAGLES NEST DR","City":"SCARBOROUGH","State":"ME","Zip":4074,"lon":-70.364,"lat":43.5574},{"STATE_ID":"05200_U028005","PROP_LOC":"14 EAGLES NEST DR Scarborough Maine","Grantee":"JODAKE LLC","Co.Grantee":"","Mailing":"252 US ROUTE 1","City":"SCARBOROUGH","State":"ME","Zip":4074,"lon":-70.3637,"lat":43.5575},{"STATE_ID":"05200_U028006","PROP_LOC":"16 EAGLES NEST DR Scarborough Maine","Grantee":"FOWLER, MICHAEL L","Co.Grantee":"","Mailing":"PO BOX 2375","City":"SCARBOROUGH","State":"ME","Zip":4070,"lon":-70.3635,"lat":43.5577},{"STATE_ID":"05200_U028008","PROP_LOC":"22 EAGLES NEST DR Scarborough Maine","Grantee":"LEVIN, DOUGLAS K","Co.Grantee":"CARTER, ABIGAIL","Mailing":"22 EAGLES NEST DR","City":"SCARBOROUGH","State":"ME","Zip":4074,"lon":-70.3624,"lat":43.5584},{"STATE_ID":"05200_U028010","PROP_LOC":"26 EAGLES NEST DR Scarborough Maine","Grantee":"BAYLEY, STANLEY R & NANCY W","Co.Grantee":"","Mailing":"26 EAGLES NEST DR","City":"SCARBOROUGH","State":"ME","Zip":4074,"lon":-70.3613,"lat":43.5582},{"STATE_ID":"05200_U028011","PROP_LOC":"28 EAGLES NEST DR Scarborough Maine","Grantee":"MURPHY, RICHARD E JR","Co.Grantee":"PEASE, DEBORAH M","Mailing":"28 EAGLES NEST DR","City":"SCARBOROUGH","State":"ME","Zip":4074,"lon":-70.3609,"lat":43.5582},{"STATE_ID":"05200_U028012","PROP_LOC":"32 EAGLES NEST DR Scarborough Maine","Grantee":"ASHLEY ALEXANDRA HOLDINGS LLC","Co.Grantee":"","Mailing":"672 US RT 1","City":"SCARBOROUGH","State":"ME","Zip":4074,"lon":-70.3605,"lat":43.5581},{"STATE_ID":"05200_U028015","PROP_LOC":"4 MALLARD LN Scarborough Maine","Grantee":"MURPHY, GAIL D LIVING TRUST","Co.Grantee":"MURPHY, GAIL D & JOHN M TRUSTEES","Mailing":"4 MALLARD LN","City":"SCARBOROUGH","State":"ME","Zip":4074,"lon":-70.3592,"lat":43.558},{"STATE_ID":"05200_U028015A","PROP_LOC":"36 EAGLES NEST DR Scarborough Maine","Grantee":"MURPHY, ANNE M REVOCABLE TRUST","Co.Grantee":"MURPHY, ANNE M ST AL TRUSTEES","Mailing":"36 EAGLES NEST DR","City":"SCARBOROUGH","State":"ME","Zip":4074,"lon":-70.3599,"lat":43.558},{"STATE_ID":"05200_U028016","PROP_LOC":"6 MALLARD LN Scarborough Maine","Grantee":"SANTERRE, JOHN W","Co.Grantee":"","Mailing":"6 MALLARD LN","City":"SCARBOROUGH","State":"ME","Zip":4074,"lon":-70.3582,"lat":43.558},{"STATE_ID":"05200_U028017","PROP_LOC":"29 EAGLES NEST DR Scarborough Maine","Grantee":"SIMONS, MARC A","Co.Grantee":"DRISCOLL, MARTHA A","Mailing":"29 EAGLES NEST DR ","City":"SCARBOROUGH","State":"ME","Zip":4074,"lon":-70.3611,"lat":43.5577},{"STATE_ID":"05200_U028018","PROP_LOC":"27 EAGLES NEST DR Scarborough Maine","Grantee":"MURPHY, RICHARD E REVOCABLE TRUST","Co.Grantee":"MURPHY, ANNE M ET AL TRUSTEES","Mailing":"36 EAGLES NEST DR","City":"SCARBOROUGH","State":"ME","Zip":4074,"lon":-70.3615,"lat":43.5578},{"STATE_ID":"05200_U028019","PROP_LOC":"25 EAGLES NEST DR Scarborough Maine","Grantee":"BELL, CALEB C II","Co.Grantee":"MOODY JILL D","Mailing":"5 WOODGATE RD","City":"SCARBOROUGH","State":"ME","Zip":4074,"lon":-70.3619,"lat":43.5579},{"STATE_ID":"05200_U028020","PROP_LOC":"23 EAGLES NEST DR Scarborough Maine","Grantee":"GRAMS, JOHN F","Co.Grantee":"PACKARD, NANCY R","Mailing":"23 EAGLES NEST DR","City":"SCARBOROUGH","State":"ME","Zip":4074,"lon":-70.3622,"lat":43.5579},{"STATE_ID":"05200_U028021","PROP_LOC":"17 EAGLES NEST DR Scarborough Maine","Grantee":"MURPHY, ANNE M REVOCABLE TRUST","Co.Grantee":"MURPHY, ANNE M ET AL TRUSTEES","Mailing":"36 EAGLES NEST DR","City":"SCARBOROUGH","State":"ME","Zip":4074,"lon":-70.3627,"lat":43.5578},{"STATE_ID":"05200_U028022","PROP_LOC":"15 EAGLES NEST DR Scarborough Maine","Grantee":"MURPHY, RICHARD E REVOCABLE TRUST","Co.Grantee":"MURPHY, ANNE ET AL TRUSTEES","Mailing":"36 EAGLES NEST DR","City":"SCARBOROUGH","State":"ME","Zip":4074,"lon":-70.3632,"lat":43.5573},{"STATE_ID":"05200_U028024","PROP_LOC":"9 EAGLES NEST DR Scarborough Maine","Grantee":"STACY, KELLY LYNN","Co.Grantee":"","Mailing":"9 EAGLES NEST DR","City":"SCARBOROUGH","State":"ME","Zip":4074,"lon":-70.3627,"lat":43.5565},{"STATE_ID":"05200_U028025","PROP_LOC":"5 EAGLES NEST DR Scarborough Maine","Grantee":"DANDREA, KAREN A","Co.Grantee":"","Mailing":"5 EAGLES NEST DR","City":"SCARBOROUGH","State":"ME","Zip":4074,"lon":-70.3631,"lat":43.5566},{"STATE_ID":"05200_U028026","PROP_LOC":"7 EAGLES NEST DR Scarborough Maine","Grantee":"ALLEY, JAMES D","Co.Grantee":"","Mailing":"7 EAGLES NEST DR","City":"SCARBOROUGH","State":"ME","Zip":4074,"lon":-70.3636,"lat":43.5568},{"STATE_ID":"05200_U028027","PROP_LOC":"182 PINE POINT RD Scarborough Maine","Grantee":"WHALEY, JOSHUA J","Co.Grantee":"","Mailing":"182 PINE POINT RD ","City":"SCARBOROUGH","State":"ME","Zip":4074,"lon":-70.3641,"lat":43.5564},{"STATE_ID":"05200_U028027A","PROP_LOC":"184 PINE POINT RD Scarborough Maine","Grantee":"DEMERS, JAMES J","Co.Grantee":"DEMERS, WENDY","Mailing":"184 PINE POINT RD","City":"SCARBOROUGH","State":"ME","Zip":4074,"lon":-70.3636,"lat":43.5562},{"STATE_ID":"05200_U028028","PROP_LOC":"188 PINE POINT RD Scarborough Maine","Grantee":"MAYNARD, GALEN C SR","Co.Grantee":"","Mailing":"P O BOX 275","City":"SCARBOROUGH","State":"ME","Zip":4070,"lon":-70.3633,"lat":43.556},{"STATE_ID":"05200_U028029","PROP_LOC":"190 PINE POINT RD Scarborough Maine","Grantee":"BECKER, JODY W","Co.Grantee":"BISHOP, KATHLEEN A","Mailing":"190 PINE POINT RD","City":"SCARBOROUGH","State":"ME","Zip":4074,"lon":-70.3629,"lat":43.5558},{"STATE_ID":"05200_U028030","PROP_LOC":"192 PINE POINT RD Scarborough Maine","Grantee":"PIERCE, DANIEL M","Co.Grantee":"PIERCE, ROXANNE M","Mailing":"2 CHICKADEE LN","City":"SCARBOROUGH","State":"ME","Zip":4074,"lon":-70.3623,"lat":43.5559},{"STATE_ID":"05200_U028030A","PROP_LOC":"NA Scarborough Maine","Grantee":"SCOTT, SUSAN D","Co.Grantee":"","Mailing":"196 PINE POINT RD","City":"SCARBOROUGH","State":"ME","Zip":4074,"lon":-70.3345,"lat":43.5902},{"STATE_ID":"05200_U028031","PROP_LOC":"196 PINE POINT RD Scarborough Maine","Grantee":"SCOTT, SUSAN D","Co.Grantee":"","Mailing":"196 PINE POINT RD","City":"SCARBOROUGH","State":"ME","Zip":4074,"lon":-70.362,"lat":43.5555},{"STATE_ID":"05200_U028032","PROP_LOC":"198 PINE POINT RD Scarborough Maine","Grantee":"GOWEN, FRED G JR & MARY L","Co.Grantee":"TIBBETTS, LEWIS W III & TRACY L","Mailing":"198 PINE POINT RD","City":"SCARBOROUGH","State":"ME","Zip":4074,"lon":-70.3618,"lat":43.5554},{"STATE_ID":"05200_U028033","PROP_LOC":"206 PINE POINT RD Scarborough Maine","Grantee":"SCARBOROUGH, TOWN OF","Co.Grantee":"","Mailing":"P O BOX 360","City":"SCARBOROUGH","State":"ME","Zip":4074,"lon":-70.3582,"lat":43.5563}]
